name,name-en,category,tel,postalcode,address,lat,long,facility-type
品川区役所,Shinagawa City Office,区役所,03-3777-1111,140-0005,東京都品川区広町2-1-36,35.608837,139.73024,区役所
品川第一地域センター,Shinagawa Dai-ichi Community Ctr.,地域センター,03-3450-2000,140-0001,東京都品川区北品川3-11-16,35.616681,139.74008,地域センター
品川第二地域センター,Shinagawa Dai-ni Community Ctr.,地域センター,03-3472-2000,140-0004,東京都品川区南品川5-3-20,35.611373,139.74129,地域センター
大崎第一地域センター,Osaki Dai-ichi Community Ctr.,地域センター,03-3491-2000,141-0031,東京都品川区西五反田3-6-3,35.627776,139.71686,地域センター
大崎第二地域センター,Osaki Dai-ni Community Ctr.,地域センター,03-3492-2000,141-0032,東京都品川区大崎2-9-4,35.616945,139.72757,地域センター
大井第一地域センター,Oi Dai-ichi Community Ctr.,地域センター,03-3761-2000,140-0013,東京都品川区南大井1-12-6,35.596306,139.73759,地域センター
大井第二地域センター,Oi Dai-ni Community Ctr.,地域センター,03-3772-2000,140-0014,東京都品川区大井2-27-20,35.604091,139.73038,地域センター
大井第三地域センター,Oi Dai-san Community Ctr.,地域センター,03-3773-2000,140-0015,東京都品川区西大井4-1-8,35.597669,139.72108,地域センター
荏原第一地域センター,Ebara Dai-ichi Community Ctr.,地域センター,03-3786-2000,142-0062,東京都品川区小山3-22-3,35.619294,139.70569,地域センター
荏原第二地域センター,Ebara Dai-ni Community Ctr.,地域センター,03-3782-2000,142-0063,東京都品川区荏原6-17-12,35.611062,139.70442,地域センター
荏原第三地域センター,Ebara Dai-san Community Ctr.,地域センター,03-3783-2000,142-0051,東京都品川区平塚1-13-18,35.613392,139.71541,地域センター
荏原第四地域センター,Ebara Dai-yon Community Ctr.,地域センター,03-3784-2000,142-0053,東京都品川区中延5-3-12,35.60374,139.70836,地域センター
荏原第五地域センター,Ebara Dai-go Community Ctr.,地域センター,03-3785-2000,142-0043,東京都品川区二葉1-1-2,35.6082,139.72573,地域センター
八潮地域センター,Yashio Community Ctr.,地域センター,03-3799-2000,140-0003,東京都品川区八潮5-10-27,35.600153,139.75125,地域センター
東大井区民集会所,Higashi-oi Citizens' Meeting Room,集会所,03-3765-2411,140-0011,東京都品川区東大井2-16-12,35.600719,139.7417,集会所
荏原区民センター,Ebara Citizens' Ctr.,集会所,03-3788-7939,142-0063,東京都品川区荏原5-6-5,35.614536,139.70213,集会所
防災センター,Disaster Prevention Ctr.,防災センター,03-5742-9098,140-0005,東京都品川区広町2-1-36,35.608837,139.73024,防災センター
品川区環境情報活動センター,Environmental Information Service Ctr.,環境学習・活動,03-5742‐6533,140-0005,東京都品川区広町2-1-36,35.608837,139.73024,環境
台場在宅介護支援センター,Daiba In Home Long Term Care Support Ctr.,健康・福祉施設,03-5479-8593,140-0001,東京都品川区北品川3-11-16,35.616681,139.74008,在宅介護支援センター
東品川在宅介護支援センター,Higashi-shinagawa In Home Long Term Care Support Ctr.,健康・福祉施設,03-5479-2793,140-0002,東京都品川区東品川3-1-5,35.617173,139.74738,在宅介護支援センター
東品川第二在宅介護支援センター,Higashi-shinagawa Dai-ni in Home Long Term Care Support Ctr.,健康・福祉施設,03-5783-2656,140-0002,東京都品川区東品川3-27-25オフィス・イン品川3階,35.61129,139.74593,在宅介護支援センター
上大崎在宅介護支援センター,Kami-osaki In Home Long Term Care Support Ctr.,健康・福祉施設,03-3473-1831,141-0021,東京都品川区上大崎1-3-12,35.634598,139.72207,在宅介護支援センター
西五反田在宅介護支援センター,Nishi-gotanda In Home Long Term Care Support Ctr.,健康・福祉施設,03-5740-6115,141-0031,東京都品川区西五反田3-6-6,35.628118,139.71696,在宅介護支援センター
大崎在宅介護支援センター,Osaki In Home Long Term Care Support Ctr.,健康・福祉施設,03-3779-2981,141-0032,東京都品川区大崎2-11-1,35.635856,139.71536,在宅介護支援センター
南大井在宅介護支援センター,Minami-oi In Home Long Term Care Support Ctr.,健康・福祉施設,03-5753-3902,140-0013,東京都品川区南大井4-19-3,35.593234,139.73466,在宅介護支援センター
南大井第二在宅介護支援センター,Minami-oi Dai-ni In Home Long Term Care Support Ctr.,健康・福祉施設,03-5495-7083,140-0011,東京都品川区東大井4-9-1,35.6053,139.74033,在宅介護支援センター
八潮在宅介護支援センター,Yashio In Home Long Term Care Support Ctr.,健康・福祉施設,03-3790-0470,140-0003,東京都品川区八潮5-10-27,35.600153,139.75125,在宅介護支援センター
大井在宅介護支援センター,Oi In Home Long Term Care Support Ctr.,健康・福祉施設,03-5742-2723,140-0014,東京都品川区大井4-14-8,35.60188,139.73283,在宅介護支援センター
大井第二在宅介護支援センター,Oi Dai-ni In Home Long Term Care Support Ctr.,健康・福祉施設,03-5743-2943,140-0014,東京都品川区大井3-15-7,35.602366,139.72954,在宅介護支援センター
西大井在宅介護支援センター,Nishi-oi In Home Long Term Care Support Ctr.,健康・福祉施設,03-5743-6120,140-0015,東京都品川区西大井2-4-4,35.59993,139.72253,在宅介護支援センター
荏原在宅介護支援センター,Ebara In Home Long Term Care Support Ctr.,健康・福祉施設,03-5750-3704,142-0063,東京都品川区荏原2-9-6,35.617091,139.71111,在宅介護支援センター
小山台在宅介護支援センター,Koyamadai In Home Long Term Care Support Ctr.,健康・福祉施設,03-5794-8511,142-0061,東京都品川区小山台1-4-1りんし21 3階,35.624337,139.70447,在宅介護支援センター
小山在宅介護支援センター,Koyama In Home Long Term Care Support Ctr.,健康・福祉施設,03-5749-7288,142-0062,東京都品川区小山7-14-18,35.609006,139.69648,在宅介護支援センター
成幸在宅介護支援センター,Seiko In Home Long Term Care Support Ctr.,健康・福祉施設,03-3787-7493,142-0053,東京都品川区中延1-8-7,35.612084,139.71184,在宅介護支援センター
中延在宅介護支援センター,Nakanobu In Home Long Term Care Support Ctr.,健康・福祉施設,03-3787-2167,142-0053,東京都品川区中延6-8-8,35.601813,139.71119,在宅介護支援センター
大原在宅介護支援センター,Ohara In Home Long Term Care Support Ctr.,健康・福祉施設,03-5749-2531,142-0042,東京都品川区豊町6-25-13,35.603807,139.71361,在宅介護支援センター
戸越台在宅介護支援センター,Togoshi In Home Long Term Care Support Ctr.,健康・福祉施設,03-5750-1053,142-0041,東京都品川区戸越1-15-23,35.615706,139.71759,在宅介護支援センター
杜松在宅介護支援センター,Tosho In Home Long Term Care Support Ctr.,健康・福祉施設,03-5750-7707,142-0042,東京都品川区豊町4-24-15,35.606135,139.72276,在宅介護支援センター
成幸ホーム,Santoku-kai 'Seiko Home',健康・福祉施設,03-3787-3616,142-0053,東京都品川区中延1-8-7,35.612084,139.71184,特別養護老人ホーム
かえで荘,Shinagawa Consolidated Welfare Ctr. 'Kaede-so',健康・福祉施設,03-3790-4826,140-0003,東京都品川区八潮5-1-1,35.605155,139.75243,特別養護老人ホーム
晴楓ホーム,Fukuei-kai 'Seifu Home',健康・福祉施設,03-5479-2744,140-0002,東京都品川区東品川3-1-8,35.617256,139.74684,特別養護老人ホーム
戸越台特別養護老人ホーム,Togoshidai Intensive Care Home for the Elderly,健康・福祉施設,03-5750-1054,142-0041,東京都品川区戸越1-15-23,35.615706,139.71759,特別養護老人ホーム
荏原特別養護老人ホーム,Ebara Intensive Care Home for the Elderly,健康・福祉施設,03-5750-2941,142-0063,東京都品川区荏原2-9-6,35.617091,139.71111,特別養護老人ホーム
中延特別養護老人ホーム,Nakanobu Intensive Care Home for the Elderly,健康・福祉施設,03-3787-2951,142-0053,東京都品川区中延6-8-8,35.601813,139.71119,特別養護老人ホーム
ロイヤルサニー,Shunko-fukushi-kai 'Royal Sunny',健康・福祉施設,03-5743-6111,140-0015,東京都品川区西大井2-4-4,35.59993,139.72253,特別養護老人ホーム
八潮南特別養護老人ホーム,,健康・福祉施設,03-5755-9360,140-0003,東京都品川区八潮5-9-2,35.598721,139.75267,特別養護老人ホーム
杜松 特別養護老人ホーム,Tosho Intensive Care Home for the Elderly,健康・福祉施設,03-6426-8213,142-0042,東京都品川区豊町4-24-15,35.605987,139.72258,特別養護老人ホーム
ケアセンター南大井,"Sakura-kai ""Care Ctr. Minami-oi""",健康・福祉施設,03-5753-3901,140-0013,東京都品川区南大井5-19-1,35.594659,139.73398,老人保健施設
東海ホーム,Fukuei-kai 'Tokai Home',健康・福祉施設,03-5479-2944,140-0002,東京都品川区東品川3-1-8,35.617256,139.74684,軽費老人ホーム
さくらハイツ南大井,Sakura-kai 'Sakura Heights Minami-oi',健康・福祉施設,03-5753-3900,140-0013,東京都品川区南大井5-19-1,35.594659,139.73398,ケアハウス
さくらハイツ西五反田,Sakura-kai 'Sakura Heights Nishi-gotanda',健康・福祉施設,03-5434-7831,141-0031,東京都品川区西五反田3-6-6,35.628118,139.71696,ケアハウス
ケアホーム西五反田,Sakura-kai 'Care Home Nishi-gotanda',健康・福祉施設,03-5434-7831,141-0031,東京都品川区西五反田3-6-6,35.628118,139.71696,ケアハウス
ケアホーム東大井,Angel Help 'Care Home Higashi-oi',健康・福祉施設,03-5783-0753,140-0011,東京都品川区東大井5-8-12,35.607638,139.7379,ケアハウス
東品川シルバーセンター,Higashi-shinagawa Silver Center  (Senior Citizens' Ctr.),健康・福祉施設,03-3472-2944,140-0002,東京都品川区東品川3-32-10,35.614193,139.75075,シルバーセンター
北品川シルバーセンター,Kaka-shinagawa Silver Center (Senior Citizens' Ctr.),健康・福祉施設,03-3471-6507,140-0001,東京都品川区北品川1-29-12,35.620533,139.74177,シルバーセンター
南品川シルバーセンター,Minami-shinagawa Silver Center (Senior Citizens' Ctr.),健康・福祉施設,03-3471-7000,140-0004,東京都品川区南品川5-10-3,35.610215,139.73984,シルバーセンター
五反田シルバーセンター,Gotanda Silver Center (Senior Citizens' Ctr.),健康・福祉施設,03-3445-0296,141-0022,東京都品川区東五反田2-15-6,35.621933,139.72944,シルバーセンター
上大崎シルバーセンター,Kami-osaki Silver Center (Senior Citizens' Ctr.),健康・福祉施設,03-3449-1750,141-0021,東京都品川区上大崎1-3-12,35.634598,139.72207,シルバーセンター
西五反田シルバーセンター,Nishi-gotanda Silver Center (Senior Citizens' Ctr.),健康・福祉施設,03-3493-0076,141-0031,東京都品川区西五反田3-9-10,35.626535,139.71691,シルバーセンター
平塚シルバーセンター,Hiratsuka Silver Center (Senior Citizens' Ctr.),健康・福祉施設,03-3782-1369,142-0051,東京都品川区平塚2-10-20,35.616914,139.71396,シルバーセンター
後地シルバーセンター,Ushiroji Silver Center  (Senior Citizens' Ctr.),健康・福祉施設,03-3781-6506,142-0062,東京都品川区小山2-9-19,35.62063,139.7092,シルバーセンター
小山シルバーセンター,Koyama Silver Center (Senior Citizens' Ctr.),健康・福祉施設,03-3785-6420,142-0062,東京都品川区小山5-17-18,35.614836,139.70144,シルバーセンター
旗の台シルバーセンター,Hatanodai Silver Center (Senior Citizens' Ctr.),健康・福祉施設,03-3783-7479,142-0064,東京都品川区旗の台4-13-1,35.602585,139.70467,シルバーセンター
ゆたかシルバーセンター,Yutaka Silver Center (Senior Citizens' Ctr.),健康・福祉施設,03-3781-5424,142-0042,東京都品川区豊町3-2-15,35.608337,139.71961,シルバーセンター
西大井いきいきセンター,Nishi-oi Lively Ctr.,健康・福祉施設,03-5718-1330,140-0015,東京都品川区西大井2-5-21,35.599255,139.72186,シルバーセンター
関ヶ原シルバーセンター,Sekigahara Silver Center  (Senior Citizens' Ctr.),健康・福祉施設,03-3765-7022,140-0011,東京都品川区東大井6-11-11,35.601883,139.73651,シルバーセンター
南大井シルバーセンター,Minami-oi Silver Center  (Senior Citizens' Ctr.),健康・福祉施設,03-3761-6540,140-0013,東京都品川区南大井3-7-13,35.591828,139.7343,シルバーセンター
品川区シルバー人材センター,Shinagawa-ku Silver Work Contract Ctr. for the Aged,健康・福祉施設,03-3450-0711,140-0001,東京都品川区北品川3-11-16,35.616681,139.74008,品川区シルバー人材センター
品川区シルバー人材センター東大井支所,,健康・福祉施設,03-3450-0713,140-0011,東京都品川区東大井1-4-14,35.605677,139.74506,品川区シルバー人材センター
品川区シルバー人材センター荏原支部,,健康・福祉施設,03-5751-3334,142-0063,東京都品川区荏原2-16-18,35.616736,139.70892,品川区シルバー人材センター
品川区シルバー人材センターゆたか分室,,健康・福祉施設,03-3785-5600,142-0042,東京都品川区豊町3-2-15,35.608337,139.71961,品川区シルバー人材センター
品川介護福祉専門学校,Shinagawa Sch. of Community Care Worker,健康・福祉施設,03-5498-6364,141-0033,東京都品川区西品川1-28-3,35.609295,139.72769,品川介護福祉専門学校
品川区社会福祉協議会,Shinagawa City Council of Social Welfare,健康・福祉施設,03-5718-7171,140-0014,東京都品川区大井1-14-1 大井1丁目共同ビル,35.607696,139.73146,品川区社会福祉協議会
医師会立品川区訪問看護ステーション,Medical Association's Shinagawa City Home Call Nurse Sta.,健康・福祉施設,03-3472-5518,140-0001,東京都品川区北品川3-7-25品川区医師会館2階,35.617095,139.74064,訪問看護ステーション
医師会立荏原訪問看護ステーション,Medical Association's Ebara Home Call Nurse Sta.,健康・福祉施設,03-3783-2360,142-0053,東京都品川区中延2-6-5荏原医師会新館3階,35.611542,139.71226,訪問看護ステーション
社会福祉法人さくら会南大井訪問看護ステーション,Sakura-kai 'Minami-oi Home Call Nurse Sta.',健康・福祉施設,03-5495-7084,140-0011,東京都品川区東大井4-9-1品川区大井林町高齢者複合施設内,35.6053,139.74033,訪問看護ステーション
セコム医療システム株式会社セコム高輪訪問看護ステーション,,健康・福祉施設,03-6408-2568,108-0074,東京都港区高輪3-25-27アベニュー高輪1306,35.631471,139.73787,訪問看護ステーション
医療法人財団城南福祉医療協会西品川訪問看護ステーション,,健康・福祉施設,03-3779-5020,141-0033,東京都品川区西品川1-8-22,35.612542,139.73036,訪問看護ステーション
医療法人社団リゾーム慶和会小山台訪問看護ステーション,,健康・福祉施設,03-3715-7366,142-0061,東京都品川区小山台1-24-4カーサエスペランサ102号,35.621704,139.706,訪問看護ステーション
ソフィアメディ株式会社ソフィア訪問看護ステーション小山,,健康・福祉施設,03-5749-1657,142-0062,東京都品川区小山7-10-1ロワール洗足102,35.610094,139.69609,訪問看護ステーション
医療法人財団城南福祉医療協会ゆたか訪問看護ステーション,,健康・福祉施設,03-5751-3952,142-0042,東京都品川区豊町4-3-20,35.606815,139.71977,訪問看護ステーション
株式会社仁済訪問看護ステーション品川,,健康・福祉施設,03-5718-1828,140-0014,東京都品川区大井1-32-14HFビル1階,35.605077,139.73068,訪問看護ステーション
株式会社ライフケアサービスセンター訪問看護ステーション,,健康・福祉施設,03-3471-3908,140-0001,東京都品川区北品川3-3-3東和ビル3階,35.621761,139.73875,訪問看護ステーション
有限会社アローズ元気訪問看護ステーション,,健康・福祉施設,03-5715-5386,140-0001,東京都品川区北品川2-9-21,35.618292,139.74321,訪問看護ステーション
ソフィアメディ株式会社ソフィア訪問看護ステーション不動前,,健康・福祉施設,03-6847-1616,141-0021,東京都品川区上大崎3-11-2メゾン花房山2 202号室,35.630612,139.71747,訪問看護ステーション
有限会社新井湯訪問看護ステーション・湯～亀,,健康・福祉施設,03-5788-9655,142-0064,東京都品川区旗の台4-5-17,35.602562,139.70578,訪問看護ステーション
セントケア東京株式会社セントケア訪問看護ステーションあい,,健康・福祉施設,03-6429-1011,140-0014,東京都品川区大井4-10-6ベルリッチ小松2階,35.603052,139.73419,訪問看護ステーション
ソフィアメディ株式会社ソフィア訪問看護ステーション豊町,,健康・福祉施設,03-6865-1030,142-0042,東京都品川区豊町1-6-11プレジール101,35.61335,139.72251,訪問看護ステーション
株式会社ファインナースステーションもも,,健康・福祉施設,03-6721-6540,141-0022,東京都品川区東五反田2-19-4坂本ビル2階,35.625135,139.72955,訪問看護ステーション
サポしながわ,Sapo Shinagawa (Free Job Placement Office),健康・福祉施設,03-5498-6357,141-0033,東京都品川区西品川1-28-3　品川区立中小企業センター1階,35.609295,139.72769,無料職業紹介所
品川保健センター,Shinagawa Health Service Center,健康・保健施設,03-3474-2225,140-0001,東京都品川区北品川3-11-22,35.616606,139.74069,保健センター
荏原保健センター,Ebara Health Service Center,健康・保健施設,03-3788-2000,142-0063,東京都品川区荏原2-9-6,35.617091,139.71111,保健センター
大井保健センター,Oi Health Service Center,健康・保健施設,03-3772-2666,140-0014,東京都品川区大井2-27-20,35.604091,139.73038,保健センター
荏原健康センター,Ebara Health Ctr.,健康・保健施設,03-3788-7017,142-0063,東京都品川区荏原2-9-6,35.617091,139.71111,健康センター
品川健康センター,Shinagawa Health Ctr.,健康・保健施設,03-5782-8507,140-0001,東京都品川区北品川3-11-22,35.616606,139.74069,健康センター
区立心身障害者福祉会館,Welfare Ctr. for the Handicapped,障害者（児）福祉施設,03-3785-3322,142-0064,東京都品川区旗の台5-2-2,35.605004,139.70042,自立訓練（機能訓練）（身）、自立訓練（生活訓練） （知）、生活介護
区立西大井福祉園,Nishi-oi Welfare Home,障害者（児）福祉施設,03-3777-0294,140-0015,東京都品川区西大井5-7-24,35.59926,139.71662,生活介護（身・知）、就労継続支援B型（身・知）
区立かがやき園,Kagayaki Gakuen Sch.,障害者（児）福祉施設,03-3772-8171,140-0015,東京都品川区西大井6-2-14,35.600838,139.7155,生活介護（知）、施設入所支援（知）、短期入所
（社福）品川総合福祉センターかもめ園,,障害者（児）福祉施設,03-3790-4729,140-0003,東京都品川区八潮5-1-1,35.605155,139.75243,生活介護（身・知）、施設入所支援（身・知）、短期入所
（社福）品川総合福祉センターさつき,,障害者（児）福祉施設,03-3790-0593,140-0003,東京都品川区八潮5-3-8,35.6032,139.75193,就労継続支援B型（身・知）
（社福）品川総合福祉センター サンかもめ,,障害者（児）福祉施設,03-5755-7817,140-0003,東京都品川区八潮5-10-27,35.600153,139.75125,生活介護（身・知）
（社福）福栄会 第一しいのき学園,Dai-ichi Siinoki Gakuen Sch.,障害者（児）福祉施設,03-5479-2941,140-0002,東京都品川区東品川3-1-8,35.617256,139.74684,生活介護（身・知）
（社福）福栄会 第二しいのき学園,Dai-ni Siinoki Gakuen Sch.,障害者（児）福祉施設,03-5479-2941,140-0002,東京都品川区東品川3-1-8,35.617256,139.74684,就労継続支援B型（身・知）
（社福）福栄会 南品川むつみ園,,障害者（児）福祉施設,03-5495-7970,140-0004,東京都品川区南品川5-16-25,35.607107,139.74287,生活介護
（社福）げんき,,障害者（児）福祉施設,03-5496-2536,141-0032,東京都品川区大崎4-11-12,35.61858,139.7214,就労移行
区立発達障害者支援施設  「ぷらーす」,,障害者（児）福祉施設,03-5793-7095,141-0021,東京都品川区上大崎1-20-12,35.633101,139.72218,就労継続Ａ、就労継続Ｂ
ジョブザ品川区,,障害者（児）福祉施設,03-6417-0280,141-0031,東京都品川区西五反田1-13-7  マルキビル3Ｆ,35.62398,139.72415,就労移行支援
区立品川児童学園 （児童発達支援センター）,,障害者（児）福祉施設,03-5796-6347,140-0004,東京都品川区南品川3-7-7,35.607318,139.74477,子ども発達相談室、児童発達支援事業      （知的障害児）
区立品川児童学園 （コンパス）,,障害者（児）福祉施設,03-5781-5683,140-0004,東京都品川区南品川3-7-7,35.607318,139.74477,児童発達支援事業        （発達障害児）、放課後等デイサービス     （発達障害児）
ちびっこタイム品川,Kids' Time Shinagawa,障害者（児）福祉施設,03-3450-7447,140-0002,東京都品川区東品川3-25-16,35.612826,139.74665,児童発達支援事業      （知的障害児）、放課後等デイサービス     （知的障害児）
トット文化館,,障害者（児）福祉施設,03-3779-0233,141-0033,東京都品川区西品川2-2-16,35.614706,139.72854,就労継続B（聴覚）
かもめ第一工房,Kamome Dai-ichi Workshop,障害者（児）福祉施設,03-3458-4307,140-0001,東京都品川区北品川3-7-21,35.617875,139.74034,就労継続支援B型（精神）
かもめ第二工房,Kamome Dai-ni Workshop,障害者（児）福祉施設,03-6429-8401,140-0015,東京都品川区西大井1-8-7,35.600907,139.72311,就労継続支援B型（精神）
かもめ第三工房,Kamome Dai-san Workshop,障害者（児）福祉施設,03-5435-1808,141-0031,東京都品川区西五反田2-24-2,35.626013,139.7193,就労継続支援B型（精神）
区立北品川つばさの家,Kita-shinagawa Tsubasa-no-ie,障害者（児）福祉施設,03-5461-8822,140-0001,東京都品川区北品川3-7-21,35.617875,139.74034,グループホーム
区立西大井つばさの家,Nishi-oi Tsubasa-no-ie,障害者（児）福祉施設,03-3777-1478,140-0015,東京都品川区西大井5-7-24,35.59926,139.71662,グループホーム
渡辺寮,,障害者（児）福祉施設,03-3784-0404,142-0042,東京都品川区豊町2-11-17,35.611815,139.72395,グループホーム
若草寮,,障害者（児）福祉施設,03-3785-1256,142-0042,東京都品川区豊町2-5-11,35.609726,139.72349,グループホーム
わいわいてい,,障害者（児）福祉施設,03-5709-5587,140-0015,東京都品川区西大井6-9-3,35.600832,139.7208,グループホーム
旗の台つばさの家,Hatanodai Tsubasa-no-ie,障害者（児）福祉施設,03-5788-3177,142-0064,東京都品川区旗の台3-5-11,35.60504,139.70839,グループホーム
海老沢寮,,障害者（児）福祉施設,03-3450-5181,140-0011,東京都品川区東大井4-8-11,35.605535,139.74071,グループホーム
八潮寮,,障害者（児）福祉施設,03-3799-2809,140-0003,東京都品川区八潮5-6-33-403,35.597231,139.74976,グループホーム
グループホーム森前,,障害者（児）福祉施設,03-5742-7522,140-0015,東京都品川区西大井1-8-7,35.600907,139.72311,グループホーム
鮫洲なぎさの家,,障害者（児）福祉施設,03-5460-8605,140-0015,東京都品川区西大井1-3-10,35.601641,139.72197,グループホーム
ミドリホーム品川,,障害者（児）福祉施設,03-5753-2300,140-0011,東京都品川区東大井2-19-3,35.599872,139.74002,グループホーム
かもめハウス,,障害者（児）福祉施設,03-5753-8260,140-0013,東京都品川区南大井3-20-14,35.589004,139.73519,グループホーム（精神）
(社福）品川総合福祉センター福祉工場しながわ,,障害者（児）福祉施設,03-5460-8601,140-0011,東京都品川区東大井1-3-10,35.605796,139.74397,就労継続支援A型（知）
区立障害者生活支援センター（心身障害者福祉会館内）,,障害者（児）福祉施設,03-5750-4995,142-0064,東京都品川区旗の台5-2-2,35.605004,139.70042,支援センター・福祉センター
福栄会 障害者相談支援センター,,障害者（児）福祉施設,03-5479-2912,140-0002,東京都品川区東品川3-1-8,35.617256,139.74684,支援センター・福祉センター
精神障害者地域生活支援センター（たいむ）,,障害者（児）福祉施設,03-5719-3381,141-0031,東京都品川区西五反田2-24-2,35.626013,139.7193,支援センター・福祉センター
障害者就労支援センター（げんき品川）,Handicapped People Employment Support Ctr.(Genki Shinagawa),障害者（児）福祉施設,03-5496-2525,141-0032,東京都品川区大崎4-11-12,35.61858,139.7214,支援センター・福祉センター
区立地域活動支援センター 逢「あえる」                  （心身障害者福祉会館内）,,障害者（児）福祉施設,03-5750-4996,142-0064,東京都品川区旗の台5-2-2,35.605004,139.70042,支援センター・福祉センター
品川児童相談所,Shinagawa Child Guidance Ctr.,障害者（児）福祉施設,03-3474-5442,140-0001,東京都品川区北品川3-7-21,35.617875,139.74034,その他の福祉施設
ふれあい作業所,Fureai Workshop,障害者（児）福祉施設,03-3775-4585,140-0015,東京都品川区西大井4-9-9,35.596236,139.72028,その他の福祉施設
ふれあい作業所西品川分室,Fureai Workshop Nishi-shinagawa Branch,障害者（児）福祉施設,03-3787-5750,141-0033,東京都品川区西品川1-28-3,35.609295,139.72769,その他の福祉施設
ふれあい作業所荏原分室,Fureai Workshop Ebara Branch,障害者（児）福祉施設,03-5788-3151,142-0054,東京都品川区西中延1-2-8,35.614147,139.70978,その他の福祉施設
障害者日中一時支援事業（放課後サポート）    にじのひろば荏原,,障害者（児）福祉施設,03-3787-3757,142-0063,東京都品川区荏原4-12-20,35.616061,139.70529,その他の福祉施設
障害者日中一時支援事業（放課後サポート）    にじのひろば八潮,,障害者（児）福祉施設,03-5755-9795,140-0003,東京都品川区八潮5-3-8,35.6032,139.75193,その他の福祉施設
発達障害児思春期サポート事業（ら・るーと）,,障害者（児）福祉施設,03-5782-7650,140-0001,東京都品川区北品川3-7-21,35.617875,139.74034,その他の福祉施設
重症心身障害者通所事業「ピッコロ」,,障害者（児）福祉施設,03-3799-5931,140-0003,東京都品川区八潮5-3-8,35.6032,139.75193,その他の福祉施設
城南幼稚園,Jonan Kindergarten,教育・子どもの施設,03-3471-7584,140-0004,東京都品川区南品川2-8-21,35.613329,139.74275,区立幼稚園
幼保一体施設「平塚すこやか園」,Hiratsuka Kindergarten（Hiratsuka Sukoyaka‐en）,教育・子どもの施設,03-3781-8913,142-0063,東京都品川区荏原4-5-22,35.61503,139.70769,区立幼稚園
浜川幼稚園,Hamakawa Kindergarten,教育・子どもの施設,03-3761-6395,140-0013,東京都品川区南大井4-3-14,35.597783,139.73658,区立幼稚園
幼保一体施設「御殿山すこやか園」,Gotenyama Kindergarten（Gotenyama Sukoyaka‐en）,教育・子どもの施設,03-5781-3907,140-0001,東京都品川区北品川5-3-1,35.622519,139.7317,区立幼稚園
伊藤幼稚園,Ito Kindergarten,教育・子どもの施設,03-3775-8028,140-0015,東京都品川区西大井5-22-8,35.598113,139.71685,区立幼稚園
幼保一体施設「第一日野すこやか園」,Dai-ichi-hino Kindergarten（Dai-ichi-hino Sukoyaka‐en）,教育・子どもの施設,03-3493-7264,141-0031,東京都品川区西五反田6-5-6,35.622133,139.71636,区立幼稚園
幼保一体施設「のびっこ園台場」,Daiba Kindergarten（Nobikkoen Daiba),教育・子どもの施設,03-3472-8378,140-0002,東京都品川区東品川1-8-30,35.621383,139.74318,区立幼稚園
幼保一体施設「二葉すこやか園」,Hutaba Kindergarten（Hutaba Sukoyaka‐en）,教育・子どもの施設,03-3785-9560,142-0043,東京都品川区二葉1-3-40,35.607287,139.72569,区立幼稚園
八潮わかば幼稚園,Yashio Wakaba Kindergarten,教育・子どもの施設,03-3799-1542,140-0003,東京都品川区八潮5-6-32,35.596631,139.74991,区立幼稚園
あけぼの幼稚園,Akebono Kindergarten,教育・子どもの施設,03-3776-5093,140-0014,東京都品川区大井5-10-12,35.598294,139.73001,私立幼稚園
アライアンス幼稚園,Alliance Kindergarten,教育・子どもの施設,03-3786-0379,142-0062,東京都品川区小山4-4-13,35.61843,139.70397,私立幼稚園
荏原学園旭幼稚園,Ebara-gakuen Kindergarten,教育・子どもの施設,03-3781-4915,142-0053,東京都品川区中延5-6-18,35.603154,139.7085,私立幼稚園
エトワール幼稚園,Etoile Kindergarten,教育・子どもの施設,03-3474-7321,140-0004,東京都品川区南品川5-12-4,35.608568,139.74025,私立幼稚園
大井うさぎ幼稚園,Oi-usagi Kindergarten,教育・子どもの施設,03-3776-6549,140-0014,東京都品川区大井7-1-5,35.597313,139.72525,私立幼稚園
大崎幼稚園,Osaki Kindergarten,教育・子どもの施設,03-3491-5731,141-0032,東京都品川区大崎3-11-1,35.619283,139.72341,私立幼稚園
小野学園幼稚園,Ono-gakuen Kindergarten,教育・子どもの施設,03-3774-1151,140-0015,東京都品川区西大井1-6-13,35.602538,139.72628,私立幼稚園
亀田幼稚園,Kameda Kindergarten,教育・子どもの施設,03-3783-7211,142-0053,東京都品川区中延6-1-3,35.603907,139.71037,私立幼稚園
品川教会附属幼稚園,Shinagawa-kyokai Fuzoku Kindergarten,教育・子どもの施設,03-3443-1725,140-0001,東京都品川区北品川4-7-40,35.6225,139.73753,私立幼稚園
鈴ヶ森めばえ幼稚園,Suzugamori Mebae Kindergarten,教育・子どもの施設,03-3761-8086,140-0013,東京都品川区南大井2-4-1,35.593228,139.73687,私立幼稚園
専修幼稚園,Sensyu Kindergarten,教育・子どもの施設,03-3492-2300,141-0031,東京都品川区西五反田6-11-5,35.620994,139.71755,私立幼稚園
洗足うさぎ幼稚園,Senzoku-usagi Kindergarten,教育・子どもの施設,03-3781-6215,142-0063,東京都品川区荏原7-18-15,35.609947,139.69869,私立幼稚園
戸越幼稚園,Togoshi Kindergarten,教育・子どもの施設,03-3785-4968,142-0041,東京都品川区戸越1-21-15,35.615122,139.72134,私立幼稚園
帝京にしき幼稚園,Teikyo Nishiki Kindergarten,教育・子どもの施設,03-3781-8522,142-0064,東京都品川区旗の台6-5-30,35.608803,139.70024,私立幼稚園
日本音楽学校幼稚園,Nihon Ongaku-gakko Fuzoku Kindergarten,教育・子どもの施設,03-3786-1711,142-0042,東京都品川区豊町2-16-12,35.610151,139.725,私立幼稚園
ひまわり幼稚園,Himawari Kindergarten,教育・子どもの施設,03-3781-4227,142-0062,東京都品川区小山6-10-11,35.613655,139.69793,私立幼稚園
文教大学付属幼稚園,Bunkyo Univ. Fuzoku Kindergarten,教育・子どもの施設,03-3781-2798,142-0064,東京都品川区旗の台3-2-17,35.605712,139.70647,私立幼稚園
八潮幼稚園,Yashio Kindergarten,教育・子どもの施設,03-3471-2450,140-0002,東京都品川区東品川3-24-8,35.612396,139.74573,私立幼稚園
一本橋保育園,Authorized Child-care Facility Ipponbashi Nursery Sch.,教育・子どもの施設,03-3775-4351,140-0014,東京都品川区大井2-25-1,35.604652,139.72963,区立保育園
伊藤保育園,Ito Nursery Sch.,教育・子どもの施設,03-3771-2211,140-0015,東京都品川区西大井6-13-1,35.600741,139.71756,区立保育園
荏原保育園,Bbara Nursery Sch.,教育・子どもの施設,03-3781-5331,142-0063,東京都品川区荏原2-16-18,35.616736,139.70892,区立保育園
荏原西保育園,Ebara-nishi Nursery Sch.,教育・子どもの施設,03-3783-6361,142-0063,東京都品川区荏原4-16-11,35.61393,139.70611,区立保育園
大井保育園,Oi Nursery Sch.,教育・子どもの施設,03-3761-8798,140-0011,東京都品川区東大井6-14-16,35.600927,139.73521,区立保育園
大井倉田保育園,Oi-kurata Nursery Sch.,教育・子どもの施設,03-3776-8539,140-0014,東京都品川区大井4-11-8,35.602272,139.7341,区立保育園
大崎保育園,Osaki Nursery Sch.,教育・子どもの施設,03-3492-6265,141-0032,東京都品川区大崎5-2-1,35.621949,139.72637,区立保育園
北品川保育園,Kika-shinagawa Nursery Sch.,教育・子どもの施設,03-3471-4907,140-0001,東京都品川区北品川2-7-21,35.618809,139.74394,区立保育園
北品川第二保育園,,教育・子どもの施設,03-5781-3881,140-0001,東京都品川区北品川3-7-43,35.61804,139.73926,区立保育園
源氏前保育園,Genjimae Nursery Sch.,教育・子どもの施設,03-3783-8744,142-0053,東京都品川区中延4-14-19,35.605384,139.7101,区立保育園
五反田保育園,Authorized Child-care Facility Gotanda Nursery Sch.,教育・子どもの施設,03-3445-4534,141-0022,東京都品川区東五反田2-15-6,35.621933,139.72944,区立保育園
小山台保育園,Koyamadai Nursery Sch.,教育・子どもの施設,03-3710-4415,142-0061,東京都品川区小山台1-3-8,35.625046,139.70675,区立保育園
品川保育園,Shinagawa Nursery Sch.,教育・子どもの施設,03-3471-0506,140-0011,東京都品川区東大井5－8－12,35.607638,139.7379,区立保育園
清水台保育園,Shimizudai Nursery Sch.,教育・子どもの施設,03-3784-0519,142-0063,東京都品川区荏原7-8-3,35.611706,139.7015,区立保育園
水神保育園,Suijin Nursery Sch.,教育・子どもの施設,03-3761-0321,140-0013,東京都品川区南大井6-2-15,35.592789,139.73289,区立保育園
滝王子保育園,Takioji Nursery Sch.,教育・子どもの施設,03-3775-4861,140-0014,東京都品川区大井5-18-1,35.598072,139.72771,区立保育園
中原保育園,Nakahara Nursery Sch.,教育・子どもの施設,03-3492-5188,142-0062,東京都品川区小山1-4-1,35.622094,139.7126,区立保育園
中延保育園,Nakanobu Nursery Sch.,教育・子どもの施設,03-3784-3405,142-0054,東京都品川区西中延1-6-16,35.61242,139.7085,区立保育園
西大井保育園,Nishi-oi Nursery Sch.,教育・子どもの施設,03-3774-5315,140-0015,東京都品川区西大井1-1-1,35.600771,139.72158,区立保育園
西五反田保育園,Nishi-gotanda Nursery Sch.,教育・子どもの施設,03-3493-0075,141-0031,東京都品川区西五反田3-9-10,35.626535,139.71691,区立保育園
西五反田第二保育園,,教育・子どもの施設,03-3493-7288,141-0031,東京都品川区西五反田6-5-6,35.622133,139.71636,区立保育園
西品川保育園,Nishi-shinagawa Nursery Sch.,教育・子どもの施設,03-3493-1333,141-0033,東京都品川区西品川3-16-35,35.615045,139.72617,区立保育園
西中延保育園,Nishi-nakanobu Nursery Sch.,教育・子どもの施設,03-3783-1856,142-0054,東京都品川区西中延3-8-5,35.607334,139.70815,区立保育園
旗の台保育園,Authorized Child-care Facility Hatanodai Nursery Sch.,教育・子どもの施設,03-3784-1903,142-0064,東京都品川区旗の台5-19-5,35.603756,139.70045,区立保育園
東大井保育園,Higashi-oi Nursery Sch.,教育・子どもの施設,03-3471-1190,140-0011,東京都品川区東大井1-22-16,35.603483,139.74137,区立保育園
東五反田保育園,Higashi-gotanda Nursery Sch.,教育・子どもの施設,03-3447-0663,141-0022,東京都品川区東五反田5-24-1,35.628013,139.72339,区立保育園
東品川保育園,Higashi-shinagawa Nursery Sch.,教育・子どもの施設,03-3472-5805,140-0002,東京都品川区東品川1-34-9,35.619128,139.74604,区立保育園
東中延保育園,Higashi-nakanobu Nursery Sch.,教育・子どもの施設,03-3785-0418,142-0052,東京都品川区東中延2-5-10,35.607806,139.71381,区立保育園
平塚保育園,Hiratsuka Nursery Sch.,教育・子どもの施設,03-3785-6770,142-0051,東京都品川区平塚2-2-3,35.618791,139.71741,区立保育園
冨士見台保育園,Fujimidai Nursery Sch.,教育・子どもの施設,03-3785-7833,140-0015,東京都品川区西大井6-1-15,35.600993,139.71427,区立保育園
二葉保育園,Futaba Nursery Sch.,教育・子どもの施設,03-3782-6786,142-0043,東京都品川区二葉1-4-25,35.608023,139.72676,区立保育園
二葉つぼみ保育園,Futaba-tsubomi-en Nursery Sch.(Fataba-sukoyaka-en),教育・子どもの施設,03-3785-3423,142-0043,東京都品川区二葉1-3-40,35.607287,139.72569,区立保育園
南大井保育園,Minami-oi Nursery Sch.,教育・子どもの施設,03-3761-6543,140-0013,東京都品川区南大井3-7-4,35.591614,139.73437,区立保育園
三ッ木保育園,Mitsugi Nursery Sch.,教育・子どもの施設,03-3491-8593,141-0033,東京都品川区西品川1-9-18,35.613115,139.7297,区立保育園
南ゆたか保育園,Minami-yutaka Nursery Sch.,教育・子どもの施設,03-3781-3601,142-0042,東京都品川区豊町4-17-21,35.606479,139.72091,区立保育園
八潮北保育園,Yashio-kita Nursery Sch.,教育・子どもの施設,03-3799-0531,140-0003,東京都品川区八潮5-1-3,35.604769,139.75323,区立保育園
八潮西保育園,Yashio-nishi Nursery Sch.,教育・子どもの施設,03-3799-0777,140-0003,東京都品川区八潮5-4-16,35.601633,139.75131,区立保育園
八潮南保育園,Yashio-minami Nursery Sch.,教育・子どもの施設,03-3799-2424,140-0003,東京都品川区八潮5-8-41,35.596614,139.75213,区立保育園
八ッ山保育園,Yatsuyama Nursery Sch.,教育・子どもの施設,03-3472-4661,140-0002,東京都品川区東品川1-2-15,35.622986,139.74356,区立保育園
ゆたか保育園,Yutaka Nursery Sch.,教育・子どもの施設,03-3786-0738,142-0042,東京都品川区豊町1-18-15,35.611534,139.72271,区立保育園
台場保育園,Daiba Nursery Sch.(Nobbiko-en Daiba),教育・子どもの施設,03-3472-8823,140-0002,東京都品川区東品川1-8-30,35.621383,139.74318,区立保育園
荏原西第二保育園,,教育・子どもの施設,03-3781-8917,142-0063,東京都品川区荏原4-5-22,35.61503,139.70769,区立保育園
ひろまち保育園,,教育・子どもの施設,0797- 23- 9610,140-0005,東京都品川区広町2-1-18,35.608265,139.73336,公設民営保育園
ぷりすくーる西五反田,Preschool Nishi-Gotanda,教育・子どもの施設,03-5759-8081,141-0031,東京都品川区西五反田3-9-9,35.626751,139.71714,公設民営保育園
あいのもり保育園,,教育・子どもの施設,03-3772-7571,140-0014,東京都品川区大井1-16-2,35.607637,139.73015,私立保育園
アスク南大井保育園,,教育・子どもの施設,03-5767-9700,140-0013,東京都品川区南大井6-22-7,35.589273,139.73215,私立保育園
アンジェリカはまかわ保育園,,教育・子どもの施設,03-6404-8447,140-0011,東京都品川区東大井3-18-2,35.600622,139.73851,私立保育園
アンジェリカ東品川保育園,,教育・子どもの施設,03-6433-3065,140-0002,東京都品川区東品川4-8-8,35.60944,139.74585,私立保育園
石井保育園,Ishii Nursery Sch.,教育・子どもの施設,03-3781-3666,142-0062,東京都品川区小山2-6-15,35.620841,139.70716,私立保育園
ウィズブック保育園武蔵小山,,教育・子どもの施設,03-6438-9544,142-0062,東京都品川区小山4-4-7,35.618524,139.70432,私立保育園
大井町のぞみ保育園,,教育・子どもの施設,03-5751-2031,142-0043,東京都品川区二葉1-12-18,35.606799,139.72683,私立保育園
キッズタウンにしおおい,,教育・子どもの施設,03-5718-1332,140-0015,東京都品川区西大井2-5-21,35.599255,139.72186,私立保育園
大空と大地のなーさりぃ大森駅前園,,教育・子どもの施設,028-638-7010,140-0013,東京都品川区南大井6-16-16,35.590948,139.73021,私立保育園
きたしながわさくらさくほいくえん,,教育・子どもの施設,03-3562-7839,140-0001,東京都品川区北品川1-28-10,35.620264,139.74145,私立保育園
キッズガーデン品川上大崎,,教育・子どもの施設,03-6431-9273,141-0021,東京都品川区上大崎4-5-37,35.628976,139.71534,私立保育園
キッズタウンにしおおい,,教育・子どもの施設,03-5718-1332,140-0015,東京都品川区西大井2-5-21,35.599255,139.72187,私立保育園
くりのき保育園,,教育・子どもの施設,03-6433-1358,140-0004,東京都品川区南品川4-1-11,35.614587,139.7382,私立保育園
グローバルキッズ荏原町,,教育・子どもの施設,03-3788-0404,142-0053,東京都品川区中延5-2-1,35.603762,139.7074,私立保育園
グローバルキッズ大崎園,,教育・子どもの施設,03-5423-5655,141-0001,東京都品川区北品川5-9-15,35.618792,139.73438,私立保育園
グローバルキッズ戸越園,,教育・子どもの施設,03-3786-0808,142-0041,東京都品川区戸越5-14-23,35.610473,139.71534,私立保育園
グローバルキッズ中延園,,教育・子どもの施設,03-3788-1525,142-0053,東京都品川区中延4-5-7,35.605568,139.71262,私立保育園
グローバルキッズ西大井園,,教育・子どもの施設,03-5742-8525,140-0015,東京都品川区西大井6-6-2,35.601243,139.71937,私立保育園
ココファン・ナーサリー大崎,,教育・子どもの施設,03-5436-8231,141-0032,東京都品川区大崎3-6-32,35.62044,139.72658,私立保育園
太陽の子南品川保育園,,教育・子どもの施設,03-5715-7707,140-0004,東京都品川区南品川5-3-10,35.611635,139.74167,私立保育園
宝保育園,Takara Nursery Sch.,教育・子どもの施設,03-3492-3872,141-0031,東京都品川区西五反田4-11-18,35.626626,139.71052,私立保育園
TKチルドレンズファーム上大崎校,,教育・子どもの施設,03-5422-9798,141-0021,東京都品川区上大崎3-14-35山手ビル1階,35.629373,139.71975,私立保育園
とうかいどう保育園,,教育・子どもの施設,03-5479-2201,140-0004,東京都品川区南品川1-2-11,35.616201,139.74327,私立保育園
とごしの杜保育園,,教育・子どもの施設,03-5479-2201,142-0051,東京都品川区平塚2-18-19,35.615458,139.71332,私立保育園
どんぐり保育園,Donguri Nursery Sch.,教育・子どもの施設,03-3471-1673,140-0004,東京都品川区南品川2-9-13,35.614123,139.74311,私立保育園
にじいろ保育園大崎,,教育・子どもの施設,03-6417-0486,141-0032,東京都品川区大崎5-4-3,35.623108,139.72532,私立保育園
日本音楽学校保育園,,教育・子どもの施設,03-5702-0034,142-0042,東京都品川区豊町2-16-12,35.610151,139.725,私立保育園
東戸越保育園,Higashi-togoshi Nursery Sch.,教育・子どもの施設,03-3781-5363,142-0041,東京都品川区戸越4-1-10,35.612264,139.71782,私立保育園
ベネッセ大崎広小路保育園,,教育・子どもの施設,03-5719-3893,141-0032,東京都品川区大崎4-1-2,35.622605,139.72287,私立保育園
ほっぺるランド東五反田,,教育・子どもの施設,03-3568-8345,141-0022,東京都品川区東五反田1-2-25,35.627843,139.72718,私立保育園
ポピンズナーサリースクール勝島,,教育・子どもの施設,03-3447-2133,140-0012,東京都品川区勝島1-6-5,35.59677,139.74439,私立保育園
まなびの森保育園大崎広小路,,教育・子どもの施設,03-5434-1044,141-0031,東京都品川区西五反田1-21-8,35.622983,139.72328,私立保育園
みずなら保育園,,教育・子どもの施設,03-5781-3707,140-0002,東京都品川区東品川3-21-10,35.613332,139.74743,私立保育園
緑の家保育園,Midori-no-ie Nursery Sch.,教育・子どもの施設,03-3776-4073,140-0014,東京都品川区大井7-4-18,35.596336,139.72881,私立保育園
みどりの丘保育園,,教育・子どもの施設,03-6303-7091,140-0015,東京都品川区西大井4-19-11,35.593875,139.71915,私立保育園
八潮中央保育園,Yashio Chuo Nursery Sch.,教育・子どもの施設,03-3799-1152,140-0003,東京都品川区八潮5-10-60-101,35.59925,139.75131,私立保育園
学研こども園,,教育・子どもの施設,03-6431-1300,141-0031,東京都品川区西五反田2-11-8,35.627393,139.72026,保育所型認定こども園
ポピンズナーサリースクール西五反田,,教育・子どもの施設,03-5436-2181,141-0031,東京都品川区西五反田8-10-8,35.619627,139.7195,保育所型認定こども園
アートチャイルドケア目黒,,教育・子どもの施設,03-6408-0415,141-0021,東京都品川区上大崎2-10-33コミュニティースペース目黒3階,35.635386,139.71701,認証保育所
アスク不動前保育園,,教育・子どもの施設,03-5759-8015,141-0031,東京都品川区西五反田4-1-10アーバンハイム不動前1階,35.628068,139.71218,認証保育所
ウィズブック保育園天王洲,,教育・子どもの施設,03-6671-9396,140-0002,東京都品川区東品川2-5-5 ハーバーワンビル1階,35.621203,139.7494,認証保育所
うみのくに保育園とごし,,教育・子どもの施設,03-6426-2692,142-0041,東京都品川区戸越1-19-18エスト戸越2階,35.614764,139.7201,認証保育所
こぐま保育園,Koguma Nursery Sch.,教育・子どもの施設,03-3783-0880,142-0064,東京都品川区旗の台2-7-17,35.606334,139.7042,認証保育所
こっこる,Coccole,教育・子どもの施設,03-5740-6971,141-0031,東京都品川区西五反田2-10-8ドルミ五反田ドゥメゾン211,35.62701,139.72088,認証保育所
さくら大崎保育園,,教育・子どもの施設,03-5745-5500,141-0032,東京都品川区大崎2-9-4大崎ウエストシティタワーズ,35.616945,139.72757,認証保育所
しながわがくどうえん,Shinagawa Gakudo-en,教育・子どもの施設,03-3781-4871,142-0041,東京都品川区戸越1-21-14,35.6151,139.72154,認証保育所
小学館アカデミーアトレ大井町保育園,,教育・子どもの施設,03-5718-3301,140-0014,東京都品川区大井1-1-1アトレ大井町2　3階,35.607646,139.73457,認証保育所
小学館アカデミーおおさき駅前保育園,Shogakukan Academy Osaki-ekimae Nursery Sch.,教育・子どもの施設,03-5719-5595,141-0032,東京都品川区大崎1-2-3アートヴィレッジ大崎ビュータワー1階,35.622905,139.72678,認証保育所
小学館アカデミーむさしこやま保育園,,教育・子どもの施設,03-5749-3755,142-0062,東京都品川区小山3-27-5武蔵小山創業支援センター2・3階,35.619766,139.70334,認証保育所
太陽の子 東五反田保育園,,教育・子どもの施設,03-5956-3327,141-0022,東京都品川区東五反田1-6-3   1階,35.627193,139.7262,認証保育所
たんぽぽ保育所東大井園,,教育・子どもの施設,03-3765-2511,140-0011,東京都品川区東大井2-12-19Mkビル2階,35.602138,139.74004,認証保育所
TKチルドレンズファーム東大井校,,教育・子どもの施設,03- 5969-8992,140-0011,東京都品川区東大井3-18-13東大井MSビル3階,35.599491,139.7383,認証保育所
パレット保育園不動前,,教育・子どもの施設,03-5719-1149,141-0031,東京都品川区西五反田5-12-1不動前駅2階,35.625774,139.7136,認証保育所
東大井かがやき保育園,,教育・子どもの施設,03-6809-0294,140-0011,東京都品川区東大井2-13-13     季美東大井2階,35.601208,139.73965,認証保育所
ひよこの家保育園,Hiyoko-no-ie Nursery Sch.,教育・子どもの施設,03-5437-5536,141-0032,東京都品川区大崎4-6-3ファミネス・ハイツ第2,35.619608,139.7233,認証保育所
BunBu学院Jr戸越園,,教育・子どもの施設,03-6451-3655,142-0041,東京都品川区戸越5-4-3 アズ品川202,35.61072,139.71732,認証保育所
ポピンズナーサリースクール東五反田,,教育・子どもの施設,03-5475-2110,141-0022,東京都品川区東五反田2-10-1パークタワーグランスカイ2階,35.624349,139.72715,認証保育所
ポピンズナーサリースクール東品川,,教育・子どもの施設,03-5796-2103,140-0002,東京都品川区東品川4-12-12,35.607535,139.74869,認証保育所
めだか保育園,Medaka Nursery Sch.,教育・子どもの施設,03-3761-3477,140-0011,東京都品川区東大井3-22-2,35.600008,139.73593,認証保育所
ゆらりん東品川保育園,,教育・子どもの施設,03-6433-2822,140-0002,東京都品川区東品川3-7-10ATG Park 東品川1階,35.616187,139.7474,認証保育所
ルーチェ保育園南品川,,教育・子どもの施設,03-5460-5420,140-0004,東京都品川区南品川2-4-7アサミビル1階,35.61064,139.74251,認証保育所
品川学園,,教育・子どもの施設,03-3474-2671,140-0001,東京都品川区北品川3-9-30,35.61805,139.73798,区立小中一貫校
日野学園,Integrated E. & Jr. H. Sch. Hino-gakuen,教育・子どもの施設,03-3441-3209,141-0022,東京都品川区東五反田2-11-1,35.624505,139.72817,区立小中一貫校
伊藤学園,Integrated E. & Jr. H. Sch. Ito-gakuen,教育・子どもの施設,03-3771-3374,140-0014,東京都品川区大井5-1-37,35.600152,139.7261,区立小中一貫校
荏原平塚学園,,教育・子どもの施設,03-3782-7770,142-0051,東京都品川区平塚3-16-26,35.615325,139.7101,区立小中一貫校
八潮学園,Integrated E. & Jr. H. Sch. Yashio-gakuen,教育・子どもの施設,03-3799-1641,140-0003,東京都品川区八潮5-11-2,35.601392,139.75253,区立小中一貫校
豊葉の杜学園,,教育・子どもの施設,03-3782-2930,142-0043,東京都品川区二葉1-3-40,35.607287,139.72569,区立小中一貫校
城南小学校,Jonan E. Sch.,教育・子どもの施設,03-3471-7919,140-0004,東京都品川区南品川2-8-21,35.613329,139.74275,区立小学校
浅間台小学校,Asamadai E. Sch.,教育・子どもの施設,03-3474-2727,140-0004,東京都品川区南品川6-8-8,35.611484,139.73649,区立小学校
三木小学校,Mitsugi E. Sch.,教育・子どもの施設,03-3491-0404,141-0033,東京都品川区西品川3-16-28,35.615528,139.72686,区立小学校
御殿山小学校,Gotenyama E. Sch.,教育・子どもの施設,03-3441-0814,141-0001,東京都品川区北品川5-2-6,35.623133,139.73177,区立小学校
城南第二小学校,Jonan-dai-ni E. Sch.,教育・子どもの施設,03-3471-7481,140-0002,東京都品川区東品川3-4-5,35.615579,139.74599,区立小学校
第一日野小学校,Dai-ichi-hino E. Sch.,教育・子どもの施設,03-3492-6258,141-0031,東京都品川区西五反田6-5-32,35.622169,139.7161,区立小学校
芳水小学校,Hosui E. Sch.,教育・子どもの施設,03-3491-1555,141-0032,東京都品川区大崎3-12-22,35.619255,139.72472,区立小学校
第三日野小学校,Dai-san-hino E. Sch.,教育・子どもの施設,03-3441-6452,141-0021,東京都品川区上大崎1-19-19,35.632801,139.72382,区立小学校
第四日野小学校,Dai-yon-hino E. Sch.,教育・子どもの施設,03-3491-1281,141-0031,東京都品川区西五反田4-29-9,35.625804,139.71234,区立小学校
大井第一小学校,Oi-dai-ichi E. Sch.,教育・子どもの施設,03-3771-5240,140-0014,東京都品川区大井6-1-32,35.598722,139.73119,区立小学校
鮫浜小学校,Samehama E. Sch.,教育・子どもの施設,03-3765-2844,140-0011,東京都品川区東大井2-10-14,35.601716,139.74067,区立小学校
山中小学校,Yamanaka E. Sch.,教育・子どもの施設,03-3772-3006,140-0014,東京都品川区大井3-7-19,35.602788,139.72993,区立小学校
立会小学校,Tachiai E. Sch.,教育・子どもの施設,03-3474-3424,140-0011,東京都品川区東大井4-15-9,35.604469,139.74019,区立小学校
浜川小学校,Hamakawa E. Sch.,教育・子どもの施設,03-3761-0530,140-0013,東京都品川区南大井4-3-27,35.59828,139.7362,区立小学校
伊藤小学校,Ito E. Sch.,教育・子どもの施設,03-3771-5331,140-0015,東京都品川区西大井5-6-8,35.598755,139.71728,区立小学校
鈴ヶ森小学校,Suzugamori E. Sch.,教育・子どもの施設,03-3763-6631,140-0013,東京都品川区南大井4-16-2,35.594478,139.73524,区立小学校
台場小学校,Daiba E. Sch.,教育・子どもの施設,03-3471-3397,140-0002,東京都品川区東品川1-8-30,35.621383,139.74318,区立小学校
京陽小学校,Keiyo E. Sch.,教育・子どもの施設,03-3781-4775,142-0051,東京都品川区平塚2-19-20,35.615117,139.71308,区立小学校
延山小学校,Enzan E. Sch.,教育・子どもの施設,03-3781-3806,142-0054,東京都品川区西中延2-17-5,35.609012,139.70808,区立小学校
中延小学校,Nakanobu E. Sch.,教育・子どもの施設,03-3781-4016,142-0053,東京都品川区中延1-11-15,35.612567,139.7095,区立小学校
小山小学校,Koyama E. Sch.,教育・子どもの施設,03-3781-0044,142-0062,東京都品川区小山5-10-6,35.616002,139.70325,区立小学校
大原小学校,Ohara E. Sch.,教育・子どもの施設,03-3781-4487,142-0041,東京都品川区戸越6-17-3,35.607323,139.716,区立小学校
宮前小学校,Miyamae E. Sch.,教育・子どもの施設,03-3781-4386,142-0041,東京都品川区戸越4-5-10,35.611878,139.71833,区立小学校
源氏前小学校,Genjimae E. Sch.,教育・子どもの施設,03-3781-4348,142-0053,東京都品川区中延6-2-18,35.603448,139.71168,区立小学校
第二延山小学校,Dai-ni-enzan E. Sch.,教育・子どもの施設,03-3781-1348,142-0064,東京都品川区旗の台1-6-1,35.61012,139.70361,区立小学校
後地小学校,Usiroji E. Sch.,教育・子どもの施設,03-3781-0890,142-0062,東京都品川区小山2-4-6,35.621568,139.70857,区立小学校
戸越小学校,Togoshi E. Sch.,教育・子どもの施設,03-3781-2856,142-0042,東京都品川区豊町2-1-20,35.610762,139.72097,区立小学校
旗台小学校,Hatanodai E. Sch.,教育・子どもの施設,03-3785-1687,142-0064,東京都品川区旗の台4-7-11,35.603354,139.70419,区立小学校
上神明小学校,Kami-shinmei E. Sch.,教育・子どもの施設,03-3781-4792,142-0043,東京都品川区二葉4-4-10,35.602921,139.71575,区立小学校
清水台小学校,Shimizudai E. Sch.,教育・子どもの施設,03-3781-4841,142-0064,東京都品川区旗の台1-11-17,35.60742,139.70233,区立小学校
小山台小学校,Koyamadai E. Sch.,教育・子どもの施設,03-3712-7587,142-0061,東京都品川区小山台1-18-24,35.622793,139.70347,区立小学校
東海中学校,Tokai Jr. H. Sch.,教育・子どもの施設,03-3471-6951,140-0002,東京都品川区東品川3-30-15,35.612621,139.74897,区立中学校
大崎中学校,Osaki Jr. H. Sch.,教育・子どもの施設,03-3491-6623,141-0033,東京都品川区西品川3-10-6,35.615836,139.72301,区立中学校
浜川中学校,Hamakawa Jr. H. Sch.,教育・子どもの施設,03-3761-1014,140-0011,東京都品川区東大井3-18-34,35.6002,139.73794,区立中学校
鈴ヶ森中学校,Suzugamori Jr. H. Sch.,教育・子どもの施設,03-3765-2849,140-0013,東京都品川区南大井2-3-14,35.593149,139.73778,区立中学校
冨士見台中学校,Fujimidai Jr. H. Sch.,教育・子どもの施設,03-3772-0900,140-0015,東京都品川区西大井5-5-14,35.598555,139.71526,区立中学校
荏原第一中学校,Ebara-dai-ichi Jr. H. Sch.,教育・子どもの施設,03-3785-1680,142-0063,東京都品川区荏原1-24-30,35.619447,139.71287,区立中学校
荏原第五中学校,Ebara-dai-go Jr. H. Sch.,教育・子どもの施設,03-3781-5643,142-0064,東京都品川区旗の台5-11-13,35.603157,139.7021,区立中学校
荏原第六中学校,Ebara-dai-roku Jr. H. Sch.,教育・子どもの施設,03-3781-7776,142-0062,東京都品川区小山5-20-19,35.616363,139.69988,区立中学校
戸越台中学校,Togoshidai Jr. H. Sch.,教育・子どもの施設,03-3781-6250,142-0041,東京都品川区戸越1-15-23,35.615706,139.71759,区立中学校
大崎高等学校,Osaki Sr. H. Sch.,教育・子どもの施設,03-3786-3355,142-0042,東京都品川区豊町2-1-7,35.609509,139.72129,都立高等学校ほか
小山台高等学校,Koyamadai Sr. H. Sch.,教育・子どもの施設,03-3714-8155,142-0062,東京都品川区小山3-3-32,35.621149,139.70369,都立高等学校ほか
八潮高等学校,Yashio Sr. H. Sch.,教育・子どもの施設,03-3471-7384,140-0002,東京都品川区東品川3-27-22,35.611851,139.74661,都立高等学校ほか
都立産業技術高等専門学校,Tokyo Metropolitan Coll. of Industrial Technology,教育・子どもの施設,03-3471-6331,140-0011,東京都品川区東大井1-10-40,35.606916,139.74897,都立高等学校ほか
杉野服飾大学,Sugino Fashion Coll.,教育・子どもの施設,03-3491-8151,141-0021,東京都品川区上大崎4-6-19,35.631587,139.71585,大学
星薬科大学,Hoshi Univ.,教育・子どもの施設,03-3786-1011,142-0063,東京都品川区荏原2-4-41,35.618949,139.71217,大学
立正大学,Rissho Univ.,教育・子どもの施設,03-3492-6616,141-0032,東京都品川区大崎4-2-16,35.620988,139.72356,大学
清泉女子大学,Seisen Univ.,教育・子どもの施設,03-3447-5551,141-0022,東京都品川区東五反田3-16-21,35.627682,139.72869,大学
昭和大学,Showa Univ.,教育・子どもの施設,03-3784-8000,142-0064,東京都品川区旗の台1-5-8,35.608495,139.7035,大学
産業技術大学院大学,Advanced In.st. of Industrial Technology,教育・子どもの施設,03-3472-7831,140-0011,東京都品川区東大井1-10-40,35.606916,139.74897,大学
日本高等洋裁学院,,教育・子どもの施設,03-3774-1151,140-0015,東京都品川区西大井1-6-13,35.602538,139.72628,各種学校
池見東京歯科衛生士専門学校,,教育・子どもの施設,03-3764-5411,140-0011,東京都品川区東大井3-5-6,35.603291,139.73914,専修学校
池見東京医療専門学校,,教育・子どもの施設,03-3764-5411,140-0011,東京都品川区東大井4-12-10,35.605655,139.73903,専修学校
荏原医師会立看護高等専修学校,Ebara-ishikai-ritu Special Senior School of Nursing,教育・子どもの施設,03-3786-0979,142-0053,東京都品川区中延1-7-12,35.61185,139.71247,専修学校
昭和大学医学部附属看護専門学校,,教育・子どもの施設,03-3784-8097,142-0064,東京都品川区旗の台1-5-8,35.608495,139.7035,専修学校
新東京歯科衛生士学校,,教育・子どもの施設,03-3763-2200,140-0013,東京都品川区南大井4-20-2,35.592956,139.7358,専修学校
新東京歯科技工士学校,,教育・子どもの施設,03-3763-2211,140-0013,東京都品川区南大井4-20-2,35.592956,139.7358,専修学校
東京健康科学専門学校,,教育・子どもの施設,03-3450-1711,140-0004,東京都品川区南品川6-10-5,35.609748,139.73619,専修学校
東京工科専門学校品川校,,教育・子どもの施設,03-5479-8811,140-0004,東京都品川区南品川3-7-12,35.606891,139.7449,専修学校
東京歯科技工専門学校,,教育・子どもの施設,03-3492-4221,141-0031,東京都品川区西五反田5-1-10,35.625943,139.71523,専修学校
東京聖星社会福祉専門学校,,教育・子どもの施設,03-3786-1751,142-0042,東京都品川区豊町2-16-12,35.610151,139.725,専修学校
東京マックス美容専門学校,,教育・子どもの施設,03-3774-1551,140-0014,東京都品川区大井1-48-11,35.605357,139.73297,専修学校
ドレスメーカー学院,,教育・子どもの施設,03-3491-8151,141-0021,東京都品川区上大崎4-6-19,35.631587,139.71585,専修学校
宮川文化服装専門学校,,教育・子どもの施設,03-3491-2333,141-0032,東京都品川区大崎4-5-20,35.619952,139.7224,専修学校
日本書道専門学校,,教育・子どもの施設,03-3490-2722,141-0021,東京都品川区上大崎2-19-6,35.637042,139.71454,専修学校
教育総合支援センター,,教育・子どもの施設,03-3490-2005,141-0031,東京都品川区西五反田6-5-1(教育文化会館4階),35.62246,139.71664,教育センター
マイスクール八潮,My School Yashio,教育・子どもの施設,03-3799-1221,140-0003,東京都品川区八潮5-2-1,35.603872,139.75311,教育センター
東品川児童センター,Higashi-shinagawa Childen's Ctr.,教育・子どもの施設,03-3472-5806,140-0002,東京都品川区東品川1-34-9,35.619128,139.74604,児童センター
北品川児童センター,Kita-sinagawa Childen's Ctr.,教育・子どもの施設,03-3471-2360,140-0001,東京都品川区北品川2-7-21,35.618809,139.74394,児童センター
南品川児童センター,Minami-shinagawa Childen's Ctr.,教育・子どもの施設,03-3450-5043,140-0004,東京都品川区南品川4-5-28,35.613489,139.73874,児童センター
小関児童センター,Koseki Childen's Ctr.,教育・子どもの施設,03-3449-1676,141-0001,東京都品川区北品川5-8-15,35.620139,139.73243,児童センター
三ツ木児童センター,Mitsugi Childen's Ctr.,教育・子どもの施設,03-3491-1005,141-0033,東京都品川区西品川2-6-13,35.614006,139.72622,児童センター
東五反田児童センター,Higashi-gotanda Childen's Ctr.,教育・子どもの施設,03-3443-1629,141-0022,東京都品川区東五反田5-24-1,35.628013,139.72339,児童センター
中原児童センター,Nakahara Childen's Ctr.,教育・子どもの施設,03-3492-6119,142-0062,東京都品川区小山1-4-1,35.622094,139.7126,児童センター
平塚児童センター,Hiratsuka Childen's Ctr.,教育・子どもの施設,03-3786-2228,142-0051,東京都品川区平塚2-2-3,35.618791,139.71741,児童センター
後地児童センター,Ushiroji Childen's Ctr.,教育・子どもの施設,03-3785-5033,142-0062,東京都品川区小山2-9-19,35.62063,139.7092,児童センター
中延児童センター,Nakanobu Childen's Ctr.,教育・子どもの施設,03-3781-9300,142-0054,東京都品川区西中延1-6-16,35.61242,139.7085,児童センター
旗の台児童センター,Hatanodai Childen's Ctr.,教育・子どもの施設,03-3785-1280,142-0064,東京都品川区旗の台5-19-5,35.603756,139.70045,児童センター
西中延児童センター,Nishi-nakanobu Childen's Ctr.,教育・子どもの施設,03-3783-1875,142-0054,東京都品川区西中延3-8-5,35.607334,139.70815,児童センター
東中延児童センター,Higashi-nakanobu Childen's Ctr.,教育・子どもの施設,03-3785-0419,142-0052,東京都品川区東中延2-5-10,35.607806,139.71381,児童センター
ゆたか児童センター,Yutaka Childen's Ctr.,教育・子どもの施設,03-3786-0633,142-0042,東京都品川区豊町1-18-15,35.611534,139.72271,児童センター
南ゆたか児童センター,Minami-yutaka Childen's Ctr.,教育・子どもの施設,03-3781-3577,142-0042,東京都品川区豊町4-17-21,35.606479,139.72091,児童センター
大原児童センター,Ohara Childen's Ctr.,教育・子どもの施設,03-3785-5128,142-0041,東京都品川区戸越6-16-1,35.607329,139.71534,児童センター
冨士見台児童センター,Fujimidai Childen's Ctr.,教育・子どもの施設,03-3785-7834,140-0015,東京都品川区西大井6-1-8,35.601329,139.71423,児童センター
伊藤児童センター,Ito Childen's Ctr.,教育・子どもの施設,03-3771-1311,140-0015,東京都品川区西大井6-13-1,35.600741,139.71756,児童センター
一本橋児童センター,Ipponbashi Childen's Ctr.,教育・子どもの施設,03-3775-4352,140-0014,東京都品川区大井2-25-1,35.604652,139.72963,児童センター
大井倉田児童センター,Oi-kurata Childen's Ctr.,教育・子どもの施設,03-3776-4881,140-0014,東京都品川区大井4-11-34,35.602358,139.73369,児童センター
滝王子児童センター,Takioji Childen's Ctr.,教育・子どもの施設,03-3771-3885,140-0014,東京都品川区大井5-19-14,35.598219,139.72899,児童センター
水神児童センター,Suijin Childen's Ctr.,教育・子どもの施設,03-3768-2027,140-0013,東京都品川区南大井5-13-19,35.595456,139.73393,児童センター
南大井児童センター,Minami-oi Childen's Ctr.,教育・子どもの施設,03-3761-4148,140-0013,東京都品川区南大井3-7-13,35.591828,139.7343,児童センター
東大井児童センター,Higashi-oi Childen's Ctr.,教育・子どもの施設,03-3471-1070,140-0011,東京都品川区東大井1-22-16,35.603483,139.74137,児童センター
八潮児童センター,Yashio Childen's Ctr.,教育・子どもの施設,03-3799-3000,140-0003,東京都品川区八潮5-10-27,35.600153,139.75125,児童センター
すまいるスクール品川学園,,教育・子どもの施設,03-3474-4126,140-0001,東京都品川区北品川3-9-30,35.61805,139.73798,すまいるスクール
すまいるスクール城南,Smile School Jonan,教育・子どもの施設,03-3471-8116,140-0004,東京都品川区南品川2-8-21,35.613329,139.74275,すまいるスクール
すまいるスクール浅間台,Smile School Asamadai,教育・子どもの施設,03-3474-6044,140-0004,東京都品川区南品川6-8-8,35.611484,139.73649,すまいるスクール
すまいるスクール三木,Smile School Mitsugi,教育・子どもの施設,03-3491-2328,141-0033,東京都品川区西品川3-16-28,35.615528,139.72686,すまいるスクール
すまいるスクール御殿山,Smile School Gotenyama,教育・子どもの施設,03-3441-3872,141-0001,東京都品川区北品川5-2-6,35.623133,139.73177,すまいるスクール
すまいるスクール城南第二,Smile School Jonan-dai-ni,教育・子どもの施設,03-3471-9301,140-0002,東京都品川区東品川3-4-5,35.615579,139.74599,すまいるスクール
すまいるスクール第一日野,Smile School Dai-ichi-hino,教育・子どもの施設,03-3492-5003,141-0031,東京都品川区西五反田6-5-32,35.622169,139.7161,すまいるスクール
すまいるスクール日野学園,Smile School Hino-gakuen,教育・子どもの施設,03-3441-0471,141-0022,東京都品川区東五反田2-11-1,35.624505,139.72817,すまいるスクール
すまいるスクール芳水,Smile School Hosui,教育・子どもの施設,03-3491-5780,141-0032,東京都品川区大崎3-12-22,35.619255,139.72472,すまいるスクール
すまいるスクール第三日野,Smile School Dai-san-hino,教育・子どもの施設,03-3441-6467,141-0021,東京都品川区上大崎1-19-19,35.632801,139.72382,すまいるスクール
すまいるスクール第四日野,Smile School Dai-yon-hino,教育・子どもの施設,03-3491-5953,141-0031,東京都品川区西五反田4-29-9,35.625804,139.71234,すまいるスクール
すまいるスクール台場,Smile School Daiba,教育・子どもの施設,03-3471-7726,140-0002,東京都品川区東品川1-8-30,35.621383,139.74318,すまいるスクール
すまいるスクール大井第一,Smile School Oi-dai-ichi,教育・子どもの施設,03-3771-5100,140-0014,東京都品川区大井6-1-32,35.598722,139.73119,すまいるスクール
すまいるスクール鮫浜,Smile School Samehama,教育・子どもの施設,03-3765-7759,140-0011,東京都品川区東大井2-10-14,35.601716,139.74067,すまいるスクール
すまいるスクール山中,Smile School Yamanaka,教育・子どもの施設,03-3772-4152,140-0014,東京都品川区大井3-7-19,35.602788,139.72993,すまいるスクール
すまいるスクール伊藤学園,Smile School Ito-gakuen,教育・子どもの施設,03-3771-0541,140-0014,東京都品川区大井5-1-37,35.600152,139.7261,すまいるスクール
すまいるスクール立会,Smile School Tachiai,教育・子どもの施設,03-3474-3512,140-0011,東京都品川区東大井4-15-9,35.604469,139.74019,すまいるスクール
すまいるスクール浜川,Smile School Hamakawa,教育・子どもの施設,03-3761-6664,140-0013,東京都品川区南大井4-3-27,35.59828,139.7362,すまいるスクール
すまいるスクール伊藤,Smile School Ito,教育・子どもの施設,03-3771-5025,140-0015,東京都品川区西大井5-6-8,35.598755,139.71728,すまいるスクール
すまいるスクール鈴ケ森,Smile School Suzugamori,教育・子どもの施設,03-3763-0144,140-0013,東京都品川区南大井4-16-2,35.594478,139.73524,すまいるスクール
すまいるスクール八潮学園,Smile School Yashio-gakuen,教育・子どもの施設,03-3799-7006,140-0003,東京都品川区八潮5-11-2,35.601392,139.75253,すまいるスクール
すまいるスクール大原,Smile School Ohara,教育・子どもの施設,03-3781-3929,142-0041,東京都品川区戸越6-17-3,35.607323,139.716,すまいるスクール
すまいるスクール宮前,Smile School Miyamae,教育・子どもの施設,03-3781-0781,142-0041,東京都品川区戸越4-5-10,35.611878,139.71833,すまいるスクール
すまいるスクール源氏前,Smile School Genjimae,教育・子どもの施設,03-3781-7757,142-0053,東京都品川区中延6-2-18,35.603448,139.71168,すまいるスクール
すまいるスクール戸越,Smile School Togoshi,教育・子どもの施設,03-3781-5758,142-0042,東京都品川区豊町2-1-20,35.610762,139.72097,すまいるスクール
すまいるスクール旗台,Smile School Hatanodai,教育・子どもの施設,03-3785-3820,142-0064,東京都品川区旗の台4-7-11,35.603354,139.70419,すまいるスクール
すまいるスクール上神明,Smile School Kami-shinmei,教育・子どもの施設,03-3781-2019,142-0043,東京都品川区二葉4-4-10,35.602921,139.71575,すまいるスクール
すまいるスクール豊葉の杜学園,,教育・子どもの施設,03-3781-6010,142-0043,東京都品川区二葉1-3-40,35.607287,139.72569,すまいるスクール
すまいるスクール京陽,Smile School Keiyo,教育・子どもの施設,03-3781-6102,142-0051,東京都品川区平塚2-19-20,35.615117,139.71308,すまいるスクール
すまいるスクール延山,Smile School Enzan,教育・子どもの施設,03-3781-6065,142-0054,東京都品川区西中延2-17-5,35.609012,139.70808,すまいるスクール
すまいるスクール中延,Smile School Nakanobu,教育・子どもの施設,03-3781-4027,142-0053,東京都品川区中延1-11-15,35.612567,139.7095,すまいるスクール
すまいるスクール小山,Smile School Koyama,教育・子どもの施設,03-3781-0023,142-0062,東京都品川区小山5-10-6,35.616002,139.70325,すまいるスクール
すまいるスクール第二延山,Smile School Dai-ni-enzan,教育・子どもの施設,03-3781-1992,142-0064,東京都品川区旗の台1-6-1,35.61012,139.70361,すまいるスクール
すまいるスクール後地,Smile School Usiroji,教育・子どもの施設,03-3781-0866,142-0062,東京都品川区小山2-4-6,35.621568,139.70857,すまいるスクール
すまいるスクール荏原平塚学園,,教育・子どもの施設,03-3781-1880,142-0051,東京都品川区平塚3-16-26,35.615325,139.7101,すまいるスクール
すまいるスクール清水台,Smile School Shimizudai,教育・子どもの施設,03-3781-1775,142-0064,東京都品川区旗の台1-11-17,35.60742,139.70233,すまいるスクール
すまいるスクール小山台,Smile School Koyamadai,教育・子どもの施設,03-3712-5988,142-0061,東京都品川区小山台1-18-24,35.622793,139.70347,すまいるスクール
こみゅにてぃぷらざ八潮,,文化・スポーツ施設・公園,03-3799-2021,140-0003,東京都品川区八潮5-9-11,35.5982,139.75235,文化施設
五反田文化センター,Gotanda Cultural Ctr.,文化・スポーツ施設・公園,03-3492-2451,141-0031,東京都品川区西五反田6-5-1,35.62246,139.71664,文化施設
荏原文化センター,Ebara Cultural Ctr.,文化・スポーツ施設・公園,03-3785-1241,142-0053,東京都品川区中延1-9-15,35.612164,139.71055,文化施設
旗の台文化センター,Hatanodai Cultural Ctr.,文化・スポーツ施設・公園,03-3786-5191,142-0064,東京都品川区旗の台5-19-5,35.603756,139.70045,文化施設
東品川文化センター,Higashi-shinagawa Cultural Ctr.,文化・スポーツ施設・公園,03-3472-2941,140-0002,東京都品川区東品川3-32-10,35.614193,139.75075,文化施設
品川歴史館,Shinagawa Historical Mus.,文化・スポーツ施設・公園,03-3777-4060,140-0014,東京都品川区大井6-11-1,35.596733,139.73016,文化施設
きゅりあん,Curian,文化・スポーツ施設・公園,03-5479-4100,140-0011,東京都品川区東大井5-18-1,35.606177,139.73584,文化施設
スクエア荏原,,文化・スポーツ施設・公園,03-5788-5321,142-0063,東京都品川区荏原4-5-28,35.615344,139.70749,文化施設
メイプルセンター,Maple Ctr.,文化・スポーツ施設・公園,03-3774-5050,140-0015,東京都品川区西大井1-4-25,35.602074,139.72235,文化施設
O(オー)美術館,O Art Mus.,文化・スポーツ施設・公園,03-3495-4040,141-0032,東京都品川区大崎1-6-2 大崎ニューシティ2号館2階,35.620939,139.72917,文化施設
品川区民ギャラリー,,文化・スポーツ施設・公園,03-3774-5151,140-0014,東京都品川区大井1-3-6 イトーヨーカドー大井町店8階,35.607301,139.73387,文化施設
しながわ水族館,Shinagawa Aquarium,文化・スポーツ施設・公園,03-3762-3433,140-0012,東京都品川区勝島3-2-1しながわ区民公園内,35.588476,139.7375,文化施設
ウェルカムセンター原,Welcome Ctr. Hara,文化・スポーツ施設・公園,03-5742-4660,140-0015,東京都品川区西大井2-5-21,35.599255,139.72186,文化施設
品川図書館,Shinagawa Library,文化・スポーツ施設・公園,03-3471-4667,140-0001,東京都品川区北品川2-32-3,35.616839,139.74237,文化施設
二葉図書館,Futaba Library,文化・スポーツ施設・公園,03-3782-2036,142-0043,東京都品川区二葉1-4-25,35.608023,139.72676,文化施設
荏原図書館,Ebara Library,文化・スポーツ施設・公園,03-3784-2557,142-0053,東京都品川区中延1-9-15,35.612164,139.71055,文化施設
南大井図書館,Minami-oi Library,文化・スポーツ施設・公園,03-3761-6780,140-0013,東京都品川区南大井3-7-13,35.591828,139.7343,文化施設
源氏前図書館,Genjimae Library,文化・スポーツ施設・公園,03-3781-6273,142-0053,東京都品川区中延4-14-17,35.605509,139.70998,文化施設
ゆたか図書館,Utaka Library,文化・スポーツ施設・公園,03-3785-6677,142-0042,東京都品川区豊町1-17-7,35.611592,139.72236,文化施設
大井図書館,Oi Library,文化・スポーツ施設・公園,03-3777-7151,140-0014,東京都品川区大井5-19-14,35.598219,139.72899,文化施設
五反田図書館,Gotanda Library,文化・スポーツ施設・公園,03-3492-2131,141-0031,東京都品川区西五反田6-5-1,35.62246,139.71664,文化施設
大崎図書館,Osaki Library,文化・スポーツ施設・公園,03-3495-0660,141-0032,東京都品川区大崎2-4-8,35.618575,139.72571,文化施設
八潮図書館,Yashio Library,文化・スポーツ施設・公園,03-3799-1414,140-0003,東京都品川区八潮5-10-27,35.600153,139.75125,文化施設
総合体育館,General Gym.,文化・スポーツ施設・公園,03-3449-4400,141-0022,東京都品川区東五反田2-11-2,35.62418,139.72826,スポーツ施設
戸越体育館,Togoshi Gym.,文化・スポーツ施設・公園,03-3781-6600,142-0042,東京都品川区豊町2-1-17,35.61084,139.72059,スポーツ施設
総合体育館温水プール,,文化・スポーツ施設・公園,03-3449-4400,141-0022,東京都品川区東五反田2-11-2,35.62418,139.72826,スポーツ施設
戸越台中学校温水プール,,文化・スポーツ施設・公園,03-5750-1549,142-0041,東京都品川区戸越1-15-23,35.615706,139.71759,スポーツ施設
荏原文化センター温水プール,,文化・スポーツ施設・公園,03-3785-1241,142-0053,東京都品川区中延1-9-15,35.612164,139.71055,スポーツ施設
八潮学園温水プール,,文化・スポーツ施設・公園,03-5492-7582,140-0003,東京都品川区八潮5-11-2,35.601392,139.75253,スポーツ施設
品川学園温水プール,,文化・スポーツ施設・公園,03-5460-0480,140-0001,東京都品川区北品川3－9－30,35.61805,139.73798,スポーツ施設
豊葉の杜学園温水プール,,文化・スポーツ施設・公園,03-5749-3350,142-0043,東京都品川区二葉1-3-40,35.607287,139.72569,スポーツ施設
権現山公園,,文化・スポーツ施設・公園,,140-0001,東京都品川区北品川3-9-5,35.618575,139.73777,公園
八ッ山公園,,文化・スポーツ施設・公園,,140-0001,東京都品川区北品川1-14-7,35.624686,139.74292,公園
聖蹟公園,,文化・スポーツ施設・公園,,140-0001,東京都品川区北品川2-7-21,35.618809,139.74394,公園
東品川公園,Higashi-shinagawa Park,文化・スポーツ施設・公園,,140-0002,東京都品川区東品川3-14-9,35.61412,139.74604,公園
五反田公園,,文化・スポーツ施設・公園,,141-0022,東京都品川区東五反田5-24-6,35.627642,139.72369,公園
天王洲公園,Tennozu Park,文化・スポーツ施設・公園,,140-0002,東京都品川区東品川2-6-23,35.619442,139.75019,公園
五反田南公園,,文化・スポーツ施設・公園,,141-0022,東京都品川区東五反田2-1-14,35.625332,139.7246,公園
東八ツ山公園,,文化・スポーツ施設・公園,,140-0001,東京都品川区北品川1-15-11,35.62468,139.74332,公園
品川浦公園,,文化・スポーツ施設・公園,,140-0002,東京都品川区東品川1-7-17,35.6211,139.74239,公園
東海公園,,文化・スポーツ施設・公園,,140-0002,東京都品川区東品川3-29-6,35.612911,139.74923,公園
品海公園,,文化・スポーツ施設・公園,,140-0001,東京都品川区北品川1-30-9,35.620122,139.74257,公園
北品川公園,,文化・スポーツ施設・公園,,140-0001,東京都品川区北品川2-12-5,35.618748,139.74163,公園
東海第二公園,,文化・スポーツ施設・公園,,140-0002,東京都品川区東品川3-17-15,35.614223,139.75002,公園
子供の森公園,Kodomonomori Park (Children's Woods Park),文化・スポーツ施設・公園,,140-0001,東京都品川区北品川3-10-13,35.616345,139.73823,公園
上大崎公園,,文化・スポーツ施設・公園,,141-0021,東京都品川区上大崎1-3-13,35.635462,139.72166,公園
そよかぜ公園,,文化・スポーツ施設・公園,,141-0033,東京都品川区西品川2-17-8,35.612012,139.72676,公園
希望ケ丘公園,,文化・スポーツ施設・公園,,141-0021,東京都品川区上大崎3-10-25,35.631604,139.71821,公園
東品川一丁目公園,,文化・スポーツ施設・公園,,140-0002,東京都品川区東品川1-2-11,35.622844,139.74411,公園
西五反田公園,,文化・スポーツ施設・公園,,141-0031,東京都品川区西五反田5-6-4,35.624324,139.71552,公園
大崎公園,,文化・スポーツ施設・公園,,141-0032,東京都品川区大崎5-5-17,35.622919,139.72418,公園
西の台公園,,文化・スポーツ施設・公園,,141-0033,東京都品川区西品川1-4-8,35.613995,139.72913,公園
峰原公園,,文化・スポーツ施設・公園,,141-0032,東京都品川区大崎3-17-27,35.617939,139.72118,公園
横丁公園,,文化・スポーツ施設・公園,,140-0004,東京都品川区南品川5-4-9,35.610418,139.74179,公園
二日市公園,,文化・スポーツ施設・公園,,140-0004,東京都品川区南品川6-7-15,35.611441,139.73907,公園
洲崎公園,,文化・スポーツ施設・公園,,140-0002,東京都品川区東品川1-36-15,35.617964,139.74617,公園
敬老公園,,文化・スポーツ施設・公園,,140-0002,東京都品川区東品川3-32-8,35.612737,139.75037,公園
西八丁公園,,文化・スポーツ施設・公園,,141-0031,東京都品川区西五反田8-11-4,35.619723,139.71929,公園
御成橋公園,,文化・スポーツ施設・公園,,141-0022,東京都品川区東五反田2-15-20,35.622338,139.72897,公園
浅間台公園,,文化・スポーツ施設・公園,,140-0004,東京都品川区南品川6-18-19,35.608424,139.73689,公園
西霧ケ谷公園,,文化・スポーツ施設・公園,,141-0031,東京都品川区西五反田5-28-16,35.623066,139.71177,公園
北浜公園,,文化・スポーツ施設・公園,,140-0001,東京都品川区北品川2-28-12,35.617417,139.74492,公園
広町公園,,文化・スポーツ施設・公園,,140-0005,東京都品川区広町1-3-30,35.612365,139.7351,公園
鎗ケ崎公園,,文化・スポーツ施設・公園,,141-0033,東京都品川区西品川3-12-2,35.615536,139.72448,公園
三ツ木公園,,文化・スポーツ施設・公園,,141-0033,東京都品川区西品川2-6-11,35.613912,139.72646,公園
西品川公園,,文化・スポーツ施設・公園,,141-0033,東京都品川区西品川1-8-7,35.612826,139.73089,公園
仙台坂公園,,文化・スポーツ施設・公園,,140-0004,東京都品川区南品川5-16-1,35.608738,139.74165,公園
台場浦公園,,文化・スポーツ施設・公園,,140-0002,東京都品川区東品川1-8-34,35.621517,139.74297,公園
池田山公園,Ikedayama Park,文化・スポーツ施設・公園,,141-0022,東京都品川区東五反田5-4-35,35.632565,139.72343,公園
小関公園,,文化・スポーツ施設・公園,,141-0001,東京都品川区北品川5-8-21,35.619594,139.73337,公園
かむろ坂公園,,文化・スポーツ施設・公園,,141-0031,東京都品川区西五反田4-28-9,35.625215,139.71158,公園
南品川広場公園,,文化・スポーツ施設・公園,,140-0004,東京都品川区南品川5-10-27,35.608995,139.73984,公園
西品川おさんぽ公園,,文化・スポーツ施設・公園,,141-0033,東京都品川区西品川3-9-24,35.616247,139.72386,公園
南五公園,,文化・スポーツ施設・公園,,140-0004,東京都品川区南品川5-2-5,35.612148,139.74111,公園
天王洲アイル第一公園,,文化・スポーツ施設・公園,,140-0002,東京都品川区東品川2-3-21,35.623053,139.7515,公園
天王洲アイル第四公園,,文化・スポーツ施設・公園,,140-0002,東京都品川区東品川2-2-2,35.622392,139.74933,公園
天王洲アイル第三公園,,文化・スポーツ施設・公園,,140-0002,東京都品川区東品川2-2-12,35.622392,139.74933,公園
天王洲アイル第二公園,,文化・スポーツ施設・公園,,140-0002,東京都品川区東品川2-2-17,35.6221,139.75053,公園
東品川海上公園,Higashi-shinagawa Kaijo Park,文化・スポーツ施設・公園,,140-0002,東京都品川区東品川3-9-21,35.61729,139.74973,公園
天王洲アイル第九公園,,文化・スポーツ施設・公園,,140-0002,東京都品川区東品川2-4-3,35.619276,139.75106,公園
居木橋公園,,文化・スポーツ施設・公園,,141-0032,東京都品川区大崎1-14-4,35.634076,139.72666,公園
天王洲アイル第八公園,,文化・スポーツ施設・公園,,140-0002,東京都品川区東品川2-4-19,35.619276,139.75106,公園
杜の公園,,文化・スポーツ施設・公園,,140-0001,東京都品川区北品川1-6-10,35.624947,139.74228,公園
品川シーサイド公園,,文化・スポーツ施設・公園,,140-0002,東京都品川区東品川4-12-13,35.607513,139.74918,公園
谷山公園,,文化・スポーツ施設・公園,,141-0031,東京都品川区西五反田3-6-15,35.627775,139.71855,公園
ねむの木の庭,Nemunoki Garden ( Silk Tree Garden),文化・スポーツ施設・公園,,141-0022,東京都品川区東五反田5-19-5,35.630215,139.72195,公園
品川南ふ頭公園,,文化・スポーツ施設・公園,,140-0002,東京都品川区東品川5-8-4,35.622006,139.75486,公園
大崎光の滝公園,,文化・スポーツ施設・公園,,141-0032,東京都品川区大崎1-1-2,35.624069,139.7255,公園
ひふみ公園,,文化・スポーツ施設・公園,,141-0032,東京都品川区大崎2-2-11,35.61843,139.72632,公園
御殿山の丘公園,,文化・スポーツ施設・公園,,141-0001,東京都品川区北品川6-6-32,35.624713,139.73373,公園
亀の甲緑地,,文化・スポーツ施設・公園,,141-0021,東京都品川区上大崎4-5-37,35.628976,139.71534,公園
東品川ひだまり緑地,,文化・スポーツ施設・公園,,140-0002,東京都品川区東品川3-11-23,35.614998,139.74911,公園
大井海岸公園,,文化・スポーツ施設・公園,,140-0013,東京都品川区南大井3-27-5,35.588273,139.7337,公園
大井水神公園,Oi-suijin Park,文化・スポーツ施設・公園,,140-0013,東京都品川区南大井6-15-2,35.590956,139.72976,公園
鈴ケ森公園,,文化・スポーツ施設・公園,,140-0013,東京都品川区南大井4-18-14,35.593346,139.73494,公園
大井駅前公園,,文化・スポーツ施設・公園,,140-0014,東京都品川区大井1-2-5,35.606727,139.73428,公園
鮫洲運動公園,Samezu Undo Park (Samezu Sports Park),文化・スポーツ施設・公園,,140-0011,東京都品川区東大井1-4-11,35.605883,139.74499,公園
大井公園,Oi Park,文化・スポーツ施設・公園,,140-0011,東京都品川区東大井4-3-18,35.605296,139.74129,公園
東大井公園,,文化・スポーツ施設・公園,,140-0011,東京都品川区東大井3-4-4,35.604145,139.73878,公園
大井中央公園,,文化・スポーツ施設・公園,,140-0014,東京都品川区大井1-46-8,35.604349,139.73213,公園
鮫浜公園,,文化・スポーツ施設・公園,,140-0011,東京都品川区東大井2-2-3,35.603052,139.74143,公園
大井坂下公園,,文化・スポーツ施設・公園,,140-0013,東京都品川区南大井6-23-11,35.589429,139.73067,公園
金子山公園,,文化・スポーツ施設・公園,,140-0015,東京都品川区西大井4-11-6,35.595611,139.72027,公園
新浜川公園,,文化・スポーツ施設・公園,,140-0011,東京都品川区東大井2-26-18,35.598008,139.74092,公園
わかくさ公園,,文化・スポーツ施設・公園,,140-0012,東京都品川区勝島1-6-1,35.598047,139.74416,公園
原っぱ公園,,文化・スポーツ施設・公園,,140-0015,東京都品川区西大井6-1-14,35.601367,139.71461,公園
宮下公園,,文化・スポーツ施設・公園,,140-0014,東京都品川区大井2-7-16,35.605163,139.72849,公園
浜川公園,,文化・スポーツ施設・公園,,140-0013,東京都品川区南大井4-8-22,35.596986,139.73543,公園
滝王子公園,,文化・スポーツ施設・公園,,140-0014,東京都品川区大井5-19-5,35.598264,139.72851,公園
出石公園,,文化・スポーツ施設・公園,,140-0015,東京都品川区西大井3-16-27,35.594582,139.72214,公園
浜川北公園,,文化・スポーツ施設・公園,,140-0011,東京都品川区東大井3-26-6,35.599253,139.73764,公園
桐畑公園,,文化・スポーツ施設・公園,,140-0013,東京都品川区南大井6-1-17,35.593142,139.73226,公園
西の森公園,,文化・スポーツ施設・公園,,140-0015,東京都品川区西大井4-2-1,35.597302,139.72119,公園
関ケ原公園,,文化・スポーツ施設・公園,,140-0011,東京都品川区東大井6-12-21,35.602076,139.73557,公園
倉田公園,,文化・スポーツ施設・公園,,140-0014,東京都品川区大井4-29-23,35.5993,139.73131,公園
西大井広場公園,Nishi-oi Hiroba Park (Nishi-oi Square Park),文化・スポーツ施設・公園,,142-0043,東京都品川区二葉2-19-7,35.602971,139.72382,公園
元芝公園,,文化・スポーツ施設・公園,,140-0011,東京都品川区東大井3-7-18,35.602366,139.7394,公園
しながわ区民公園,Shinagawa-kumin Park （Shinagawa Citizen's Park),文化・スポーツ施設・公園,,140-0013,東京都品川区南大井2-3-17,35.593495,139.73784,公園
西大井緑地公園,,文化・スポーツ施設・公園,,140-0015,東京都品川区西大井6-10-16,35.600234,139.72047,公園
八潮公園,Yashio Park,文化・スポーツ施設・公園,,140-0003,東京都品川区八潮5-11-16,35.600345,139.7537,公園
しおじ公園,Shioji Park,文化・スポーツ施設・公園,,140-0003,東京都品川区八潮5-6-9,35.596254,139.7506,公園
大井鹿島公園,,文化・スポーツ施設・公園,,140-0014,東京都品川区大井6-8-2,35.592125,139.73285,公園
谷垂公園,,文化・スポーツ施設・公園,,140-0015,東京都品川区西大井6-13-10,35.600013,139.71803,公園
やまなか公園,,文化・スポーツ施設・公園,,140-0014,東京都品川区大井3-22-3,35.589379,139.73384,公園
大森貝塚遺跡庭園,Omori Kaizuka Iseki Park （Omori Shell Mounds Park),文化・スポーツ施設・公園,,140-0014,東京都品川区大井6-21-6,35.593264,139.72969,公園
八潮北公園,,文化・スポーツ施設・公園,,140-0003,東京都品川区八潮1-3-1,35.612485,139.75376,公園
森前公園,,文化・スポーツ施設・公園,,140-0015,東京都品川区西大井1-1-10,35.600877,139.72181,公園
鮫洲入江広場,,文化・スポーツ施設・公園,,140-0011,東京都品川区東大井1-13-1,35.603309,139.74419,公園
戸越公園,Togoshi Park,文化・スポーツ施設・公園,,142-0042,東京都品川区豊町2-1-30,35.611167,139.72239,公園
平塚公園,,文化・スポーツ施設・公園,,142-0063,東京都品川区荏原4-5-2,35.614503,139.7079,公園
荏原南公園,,文化・スポーツ施設・公園,,142-0063,東京都品川区荏原6-16-4,35.611467,139.70291,公園
小山台公園,,文化・スポーツ施設・公園,,142-0061,東京都品川区小山台2-2-1,35.625557,139.6988,公園
荏原中央公園,,文化・スポーツ施設・公園,,142-0063,東京都品川区荏原5-1-2,35.61596,139.70417,公園
西中延公園,,文化・スポーツ施設・公園,,142-0054,東京都品川区西中延2-7-14,35.610526,139.7085,公園
戸越台公園,,文化・スポーツ施設・公園,,142-0041,東京都品川区戸越1-7-17,35.616153,139.71757,公園
旗の台公園,,文化・スポーツ施設・公園,,142-0064,東京都品川区旗の台5-19-9,35.603731,139.70014,公園
小山台東公園,,文化・スポーツ施設・公園,,142-0061,東京都品川区小山台1-26-12,35.622229,139.70634,公園
旗の台南公園,,文化・スポーツ施設・公園,,142-0064,東京都品川区旗の台5-11-11,35.603629,139.70222,公園
中原公園,,文化・スポーツ施設・公園,,142-0062,東京都品川区小山1-4-4,35.621898,139.71261,公園
東中延公園,,文化・スポーツ施設・公園,,142-0052,東京都品川区東中延2-10-2,35.606956,139.71246,公園
中原東公園,,文化・スポーツ施設・公園,,142-0063,東京都品川区荏原1-21-9,35.618708,139.71481,公園
荏原町公園,,文化・スポーツ施設・公園,,142-0053,東京都品川区中延5-14-5,35.602024,139.70902,公園
荏三公園,,文化・スポーツ施設・公園,,142-0063,東京都品川区荏原3-3-10,35.618183,139.70669,公園
平塚中央公園,,文化・スポーツ施設・公園,,142-0051,東京都品川区平塚2-2-12,35.618608,139.71735,公園
荏原西公園,,文化・スポーツ施設・公園,,142-0063,東京都品川区荏原6-5-5,35.613414,139.70444,公園
大原公園,,文化・スポーツ施設・公園,,142-0041,東京都品川区戸越6-14-1,35.60739,139.71439,公園
豊町公園,,文化・スポーツ施設・公園,,142-0042,東京都品川区豊町6-16-3,35.604746,139.71644,公園
後地公園,,文化・スポーツ施設・公園,,142-0062,東京都品川区小山2-9-16,35.621316,139.70924,公園
京陽公園,,文化・スポーツ施設・公園,,142-0051,東京都品川区平塚2-12-3,35.616804,139.71326,公園
二葉公園,,文化・スポーツ施設・公園,,142-0043,東京都品川区二葉4-13-5,35.603746,139.71819,公園
中延公園,,文化・スポーツ施設・公園,,142-0054,東京都品川区西中延1-9-8,35.61174,139.70798,公園
旗の台北公園,,文化・スポーツ施設・公園,,142-0064,東京都品川区旗の台3-10-15,35.605734,139.70454,公園
源氏前公園,,文化・スポーツ施設・公園,,142-0053,東京都品川区中延6-4-15,35.602271,139.71218,公園
平塚たけのこ公園,,文化・スポーツ施設・公園,,142-0051,東京都品川区平塚1-17-7,35.612756,139.71348,公園
東中はなみずき公園,,文化・スポーツ施設・公園,,142-0052,東京都品川区東中延1-8-9,35.610817,139.71255,公園
延山くすのき公園,,文化・スポーツ施設・公園,,142-0054,東京都品川区西中延3-3-1,35.608192,139.70874,公園
西中お日さま公園,,文化・スポーツ施設・公園,,142-0054,東京都品川区西中延3-10-11,35.607065,139.70677,公園
旗の台なか公園,,文化・スポーツ施設・公園,,142-0064,東京都品川区旗の台3-9-12,35.604801,139.70559,公園
しいのき公園,,文化・スポーツ施設・公園,,142-0063,東京都品川区荏原5-5-12,35.615011,139.70337,公園
葦山公園,,文化・スポーツ施設・公園,,142-0042,東京都品川区豊町1-6-7,35.613398,139.7223,公園
戸越南公園,,文化・スポーツ施設・公園,,142-0041,東京都品川区戸越6-8-8,35.607195,139.71858,公園
江戸見坂公園,,文化・スポーツ施設・公園,,142-0062,東京都品川区小山6-23-8,35.612753,139.69926,公園
旗の台広場公園,,文化・スポーツ施設・公園,,142-0064,東京都品川区旗の台3-1-5,35.606009,139.70601,公園
あさひ公園,,文化・スポーツ施設・公園,,142-0062,東京都品川区小山2-17-27,35.619286,139.70821,公園
二鳳公園,,文化・スポーツ施設・公園,,142-0042,東京都品川区豊町4-19-20,35.605546,139.72112,公園
しながわ中央公園,,文化・スポーツ施設・公園,,141-0033,東京都品川区西品川1-20-13,35.609795,139.72979,公園
弁天通り公園,,文化・スポーツ施設・公園,,142-0053,東京都品川区中延5-3-8,35.603496,139.7085,公園
庚申公園,,文化・スポーツ施設・公園,,142-0053,東京都品川区中延5-13-17,35.601626,139.70882,公園
荏原さくら公園,,文化・スポーツ施設・公園,,142-0063,東京都品川区荏原1-24-18,35.619905,139.71329,公園
ごこう広場,,文化・スポーツ施設・公園,,142-0053,東京都品川区中延5-9-23,35.602091,139.70694,公園
中六桜広場,,文化・スポーツ施設・公園,,142-0053,東京都品川区中延6-10-3,35.601346,139.71132,公園
文庫の森,,文化・スポーツ施設・公園,,142-0042,東京都品川区豊町1-16-23,35.612295,139.72053,公園
ゆたか南公園,,文化・スポーツ施設・公園,,142-0042,東京都品川区豊町6-29-2,35.603985,139.71622,公園
戸越一丁目緑地,,文化・スポーツ施設・公園,,142-0041,東京都品川区戸越1-27-32,35.616683,139.72161,公園
南品川児童遊園,,文化・スポーツ施設・公園,,140-0004,東京都品川区南品川1-2-29,35.61564,139.74273,児童遊園
北品川三丁目児童遊園,,文化・スポーツ施設・公園,,140-0001,東京都品川区北品川3-7-15,35.618435,139.73962,児童遊園
むつみ児童遊園,,文化・スポーツ施設・公園,,140-0004,東京都品川区南品川5-2-17,35.611982,139.74098,児童遊園
南品川二丁目児童遊園,,文化・スポーツ施設・公園,,140-0004,東京都品川区南品川2-11-5,35.614007,139.74397,児童遊園
百反坂下児童遊園,,文化・スポーツ施設・公園,,141-0033,東京都品川区西品川3-20-22,35.615603,139.72928,児童遊園
五反田児童遊園,,文化・スポーツ施設・公園,,141-0022,東京都品川区東五反田5-21-10,35.628821,139.72084,児童遊園
上大崎児童遊園,,文化・スポーツ施設・公園,,141-0021,東京都品川区上大崎3-3-15,35.633576,139.71802,児童遊園
さつき児童遊園,,文化・スポーツ施設・公園,,140-0004,東京都品川区南品川5-8-28,35.610485,139.74066,児童遊園
西五反田六丁目児童遊園,,文化・スポーツ施設・公園,,141-0031,東京都品川区西五反田6-11-7,35.621013,139.71761,児童遊園
三ツ木児童遊園,,文化・スポーツ施設・公園,,141-0033,東京都品川区西品川2-9-18,35.613584,139.72443,児童遊園
大崎5丁目児童遊園,,文化・スポーツ施設・公園,,141-0032,東京都品川区大崎5-8-5,35.622008,139.72515,児童遊園
大崎五丁目遊園,,文化・スポーツ施設・公園,,141-0032,東京都品川区大崎5-2-2,35.622611,139.72596,児童遊園
西五反田4丁目遊園,,文化・スポーツ施設・公園,,141-0031,東京都品川区西五反田4-19-7,35.625532,139.70791,児童遊園
大崎橋広場,,文化・スポーツ施設・公園,,141-0031,東京都品川区西五反田1-10-2,35.624815,139.72382,児童遊園
にしよん広場,,文化・スポーツ施設・公園,,141-0031,東京都品川区西五反田4-10-6,35.625849,139.71099,児童遊園
相生広場,,文化・スポーツ施設・公園,,141-0022,東京都品川区東五反田4-1-32,35.631921,139.72641,児童遊園
東品川屋上庭園,,文化・スポーツ施設・公園,,140-0002,東京都品川区東品川3-9-21,35.61729,139.74973,児童遊園
東品川健康広場,,文化・スポーツ施設・公園,,140-0002,東京都品川区東品川3-9-21,35.61729,139.74973,児童遊園
鹿島庚塚児童遊園,,文化・スポーツ施設・公園,,140-0014,東京都品川区大井7-29-11,35.593995,139.72892,児童遊園
富士見ケ丘児童遊園,,文化・スポーツ施設・公園,,140-0015,東京都品川区西大井5-7-3,35.599502,139.7167,児童遊園
北浜川児童遊園,,文化・スポーツ施設・公園,,140-0011,東京都品川区東大井2-25-22,35.597872,139.73913,児童遊園
出石児童遊園,,文化・スポーツ施設・公園,,140-0015,東京都品川区西大井3-1-5,35.597755,139.72363,児童遊園
関ケ原児童遊園,,文化・スポーツ施設・公園,,140-0013,東京都品川区南大井5-2-15,35.599947,139.73502,児童遊園
東大井三丁目児童遊園,,文化・スポーツ施設・公園,,140-0011,東京都品川区東大井3-29-6,35.598866,139.73693,児童遊園
西大井ちびっこ児童遊園,,文化・スポーツ施設・公園,,140-0015,東京都品川区西大井2-24-9,35.598005,139.72506,児童遊園
作守児童遊園,,文化・スポーツ施設・公園,,140-0014,東京都品川区大井4-12-14,35.60163,139.73318,児童遊園
大井町緑地児童遊園,,文化・スポーツ施設・公園,,140-0014,東京都品川区大井1-7地先,35.606893,139.73289,児童遊園
南大井三丁目児童遊園,,文化・スポーツ施設・公園,,140-0013,東京都品川区南大井3-7-10,35.5915,139.73461,児童遊園
桜橋児童遊園,,文化・スポーツ施設・公園,,140-0011,東京都品川区東大井3-22-1,35.599969,139.73583,児童遊園
西大井二丁目児童遊園,,文化・スポーツ施設・公園,,140-0015,東京都品川区西大井2-22-7,35.598791,139.7245,児童遊園
森下児童遊園,,文化・スポーツ施設・公園,,140-0014,東京都品川区大井2-1-13,35.60626,139.72919,児童遊園
伊藤児童遊園,,文化・スポーツ施設・公園,,140-0015,東京都品川区西大井6-17-9,35.600407,139.71537,児童遊園
大井倉田児童遊園,,文化・スポーツ施設・公園,,140-0014,東京都品川区大井4-22-30,35.600222,139.73211,児童遊園
鈴ケ森道路児童遊園,,文化・スポーツ施設・公園,,140-0013,東京都品川区南大井1-22-1,35.594281,139.7365,児童遊園
みなみ児童遊園,,文化・スポーツ施設・公園,,140-0013,東京都品川区南大井1-13-8,35.595317,139.737,児童遊園
戸越児童遊園,,文化・スポーツ施設・公園,,142-0041,東京都品川区戸越3-9-20,35.612006,139.71576,児童遊園
旗岡児童遊園,,文化・スポーツ施設・公園,,142-0064,東京都品川区旗の台3-6-12,35.60464,139.70783,児童遊園
上神明児童遊園,,文化・スポーツ施設・公園,,142-0043,東京都品川区二葉4-3-15,35.606416,139.72016,児童遊園
神明児童遊園,,文化・スポーツ施設・公園,,142-0043,東京都品川区二葉1-4-25,35.608023,139.72676,児童遊園
豊町二丁目児童遊園,,文化・スポーツ施設・公園,,142-0042,東京都品川区豊町2-18-1,35.609457,139.7256,児童遊園
武蔵小山児童遊園,,文化・スポーツ施設・公園,,142-0062,東京都品川区小山3-12-6,35.619805,139.7059,児童遊園
中延児童遊園,,文化・スポーツ施設・公園,,142-0053,東京都品川区中延1-10-15,35.612492,139.71073,児童遊園
荏原児童遊園,,文化・スポーツ施設・公園,,142-0063,東京都品川区荏原1-25-18,35.619724,139.712,児童遊園
荏原2丁目児童遊園,,文化・スポーツ施設・公園,,142-0063,東京都品川区荏原2-16-4,35.617586,139.70928,児童遊園
戸越六丁目児童遊園,,文化・スポーツ施設・公園,,142-0041,東京都品川区戸越6-11-6,35.607673,139.71556,児童遊園
豊町5丁目児童遊園,,文化・スポーツ施設・公園,,142-0042,東京都品川区豊町5-14-3,35.60459,139.72059,児童遊園
荏原4丁目児童遊園,,文化・スポーツ施設・公園,,142-0063,東京都品川区荏原4-10-10,35.616597,139.70538,児童遊園
西中延3丁目児童遊園,,文化・スポーツ施設・公園,,142-0054,東京都品川区西中延3-5-17,35.607667,139.70907,児童遊園
立会川児童遊園（その4）,,文化・スポーツ施設・公園,,142-0064,東京都品川区旗の台3-9地先,35.604973,139.70567,児童遊園
立会川児童遊園（その2）,,文化・スポーツ施設・公園,,142-0064,東京都品川区旗の台2-1地先,35.607553,139.70472,児童遊園
立会川児童遊園（その3）,,文化・スポーツ施設・公園,,142-0064,東京都品川区旗の台3-10地先,35.605601,139.70487,児童遊園
豊町ちびっこ児童遊園,,文化・スポーツ施設・公園,,142-0042,東京都品川区豊町1-2-3,35.614667,139.72405,児童遊園
小山四丁目児童遊園,,文化・スポーツ施設・公園,,142-0062,東京都品川区小山4-6-2,35.617249,139.70459,児童遊園
小山五丁目児童遊園,,文化・スポーツ施設・公園,,142-0062,東京都品川区小山5-13-4,35.616402,139.70179,児童遊園
豊町児童遊園,,文化・スポーツ施設・公園,,142-0042,東京都品川区豊町4-1-12,35.607126,139.71918,児童遊園
中原児童遊園,,文化・スポーツ施設・公園,,142-0051,東京都品川区平塚2-6-4,35.617864,139.71534,児童遊園
わかば児童遊園,,文化・スポーツ施設・公園,,142-0041,東京都品川区戸越1-29-21,35.615489,139.72164,児童遊園
戸越ひだまり広場,,文化・スポーツ施設・公園,,142-0041,東京都品川区戸越1-4-11,35.614231,139.72291,児童遊園
戸越2丁目広場,,文化・スポーツ施設・公園,,142-0041,東京都品川区戸越2-1-9,35.614347,139.71837,児童遊園
荏原一丁目ふれあい広場,,文化・スポーツ施設・公園,,142-0063,東京都品川区荏原1-2-12,35.62118,139.71281,児童遊園
わくわく広場,,文化・スポーツ施設・公園,,142-0063,東京都品川区荏原1-4-13,35.620113,139.71257,児童遊園
宮前坂広場,,文化・スポーツ施設・公園,,142-0041,東京都品川区戸越2-6-36,35.614234,139.71981,児童遊園
旗の台東広場,,文化・スポーツ施設・公園,,142-0064,東京都品川区旗の台4-12-16,35.601857,139.70386,児童遊園
不動前緑道,,文化・スポーツ施設・公園,,142-0062,東京都品川区小山2-6-1,35.621504,139.7064,児童遊園
武蔵小山緑道,,文化・スポーツ施設・公園,,142-0062,東京都品川区小山5-3-1,35.617491,139.70058,児童遊園
西小山緑道,,文化・スポーツ施設・公園,,142-0062,東京都品川区小山6-27-1,35.612541,139.69594,児童遊園
ひらさん広場,,文化・スポーツ施設・公園,,142-0051,東京都品川区平塚3-9-1,35.614011,139.71266,児童遊園
西五反田五丁目特定児童遊園,,文化・スポーツ施設・公園,,141-0031,東京都品川区西五反田5-17-7,35.623629,139.71432,特定児童遊園
荏原三丁目特定児童遊園,,文化・スポーツ施設・公園,,142-0063,東京都品川区荏原3-4-3,35.617533,139.70778,特定児童遊園
西大井四丁目特定児童遊園,,文化・スポーツ施設・公園,,140-0015,東京都品川区西大井4-23-12,35.593014,139.71947,特定児童遊園
戸越一丁目特定児童遊園,,文化・スポーツ施設・公園,,142-0041,東京都品川区戸越1-9-6,35.616772,139.71851,特定児童遊園
戸越五丁目特定児童遊園,,文化・スポーツ施設・公園,,142-0041,東京都品川区戸越5-12-10,35.609595,139.71723,特定児童遊園
中延一丁目特定児童遊園,,文化・スポーツ施設・公園,,142-0053,東京都品川区中延1-4-16,35.612728,139.71143,特定児童遊園
中延三丁目特定児童遊園,,文化・スポーツ施設・公園,,142-0053,東京都品川区中延3-9-2,35.607795,139.71066,特定児童遊園
西品川一丁目特定児童遊園,,文化・スポーツ施設・公園,,141-0033,東京都品川区西品川1-14-13,35.611809,139.72901,特定児童遊園
南大井四丁目特定児童遊園,,文化・スポーツ施設・公園,,140-0013,東京都品川区南大井4-6-20,35.596422,139.73689,特定児童遊園
源氏前特定児童遊園,,文化・スポーツ施設・公園,,142-0053,東京都品川区中延6-4-8,35.602263,139.71243,特定児童遊園
南品川六丁目特定児童遊園,,文化・スポーツ施設・公園,,140-0004,東京都品川区南品川6-14-1,35.610501,139.73782,特定児童遊園
大井二丁目特定児童遊園,,文化・スポーツ施設・公園,,140-0014,東京都品川区大井2-5-15,35.60425,139.72739,特定児童遊園
西大井六丁目特定児童遊園,,文化・スポーツ施設・公園,,140-0015,東京都品川区西大井6-5-5,35.601089,139.71866,特定児童遊園
旗の台一丁目特定児童遊園,,文化・スポーツ施設・公園,,142-0064,東京都品川区旗の台1-8-5,35.610364,139.70214,特定児童遊園
西大井三丁目特定児童遊園,,文化・スポーツ施設・公園,,140-0015,東京都品川区西大井3-4-14,35.597035,139.72389,特定児童遊園
豊町一丁目特定児童遊園,,文化・スポーツ施設・公園,,142-0042,東京都品川区豊町1-13-5,35.612523,139.72388,特定児童遊園
荏原一丁目特定児童遊園,,文化・スポーツ施設・公園,,142-0063,東京都品川区荏原1-25-20,35.619913,139.7118,特定児童遊園
荏原六丁目特定児童遊園,,文化・スポーツ施設・公園,,142-0063,東京都品川区荏原6-7-2,35.613004,139.70538,特定児童遊園
豊四防災広場,,文化・スポーツ施設・公園,,142-0042,東京都品川区豊町4-7-11,35.607268,139.72228,特定児童遊園
豊四中央防災広場,,文化・スポーツ施設・公園,,142-0042,東京都品川区豊町4-17-1,35.606593,139.72102,特定児童遊園
本三くじら広場,,文化・スポーツ施設・公園,,141-0031,東京都品川区西五反田4-4-7,35.627454,139.71284,特定児童遊園
小山台一丁目防災広場,,文化・スポーツ施設・公園,,142-0061,東京都品川区小山台1-7-3,35.624326,139.70607,特定児童遊園
後地クマさん広場,,文化・スポーツ施設・公園,,142-0062,"東京都品川区小山2-4-13,14",35.621618,139.70815,特定児童遊園
上蛇広場,,文化・スポーツ施設・公園,,142-0043,東京都品川区二葉4-3-10,35.602632,139.71464,特定児童遊園
東中みんなの広場,,文化・スポーツ施設・公園,,142-0052,東京都品川区東中延1-2-8,35.611739,139.71366,特定児童遊園
中二さくらひろば,,文化・スポーツ施設・公園,,142-0053,東京都品川区中延2-9-18,35.610253,139.71066,特定児童遊園
ゆたか防災広場,,文化・スポーツ施設・公園,,142-0042,東京都品川区豊町6-11-1,35.60536,139.71789,特定児童遊園
中三いこいの広場,,文化・スポーツ施設・公園,,142-0053,東京都品川区中延3-7-20,35.60837,139.71122,特定児童遊園
カメさん広場,,文化・スポーツ施設・公園,,142-0041,東京都品川区戸越2-6-20,35.613011,139.72046,特定児童遊園
ひのみ広場,,文化・スポーツ施設・公園,,142-0041,東京都品川区戸越5-20-15,35.608368,139.71876,特定児童遊園
かやの木の広場,,文化・スポーツ施設・公園,,142-0042,東京都品川区豊町1-17-2,35.61147,139.72203,特定児童遊園
中延みちしるべ防災広場,,文化・スポーツ施設・公園,,142-0053,東京都品川区中延5-12-11,35.601185,139.70834,特定児童遊園
二葉中央のんき通り広場,,文化・スポーツ施設・公園,,142-0043,東京都品川区二葉3-17-14,35.60404,139.72171,特定児童遊園
ほうさん広場,,文化・スポーツ施設・公園,,142-0042,東京都品川区豊町3-4-2,35.608232,139.72059,特定児童遊園
宮前花広場,,文化・スポーツ施設・公園,,142-0041,東京都品川区戸越4-9-19,35.611056,139.71902,特定児童遊園
西大井六丁目ふれあい広場,,文化・スポーツ施設・公園,,140-0015,東京都品川区西大井6-3-1,35.601032,139.71626,特定児童遊園
東品川水辺広場,,文化・スポーツ施設・公園,,140-0002,東京都品川区東品川3-9-21地先,35.61729,139.74973,水辺広場
天王洲アイル第一水辺広場,,文化・スポーツ施設・公園,,140-0002,東京都品川区東品川2-3-21地先,35.623053,139.7515,水辺広場
天王洲アイル第二水辺広場,,文化・スポーツ施設・公園,,140-0002,東京都品川区東品川2-2-24地先,35.622689,139.74878,水辺広場
天王洲アイル第四水辺広場,,文化・スポーツ施設・公園,,140-0002,東京都品川区東品川2-4-3 地先,35.619276,139.75106,水辺広場
しながわ花海道水辺広場,,文化・スポーツ施設・公園,,140-0011,東京都品川区東大井1-13先外,35.604266,139.74421,水辺広場
品川シーサイド水辺広場,,文化・スポーツ施設・公園,,140-0002,東京都品川区東品川4-13先,35.610135,139.74996,水辺広場
五反田ふれあい水辺広場,,文化・スポーツ施設・公園,,141-0022,東京都品川区東五反田2-9-11,35.624344,139.7261,水辺広場
天王洲運河水辺広場,,文化・スポーツ施設・公園,,140-0002,東京都品川区東品川1-3,35.621714,139.74602,水辺広場
勝島かもめ水辺広場,,文化・スポーツ施設・公園,,140-0012,東京都品川区勝島1-4先,35.599986,139.74601,水辺広場
街道松の広場,,文化・スポーツ施設・公園,,140-0004,東京都品川区南品川1-8-5,35.61564,139.74413,開放広場
しながわ中央公園暫定開放広場,,文化・スポーツ施設・公園,,141-0033,東京都品川区西品川1-28,35.609473,139.72648,開放広場
潮風公園,Shiokaze Park,文化・スポーツ施設・公園,,135-0092,"東京都品川区東八潮1,2",35.623767,139.76992,都立公園
林試の森公園,Rinshinomori Park,文化・スポーツ施設・公園,,142-0061,東京都品川区小山台2丁目地内,35.624687,139.6986,都立公園
コンテナふ頭公園,Kontena-futo Park (Container Pier Park),文化・スポーツ施設・公園,,140-0003,東京都品川区八潮2-9-14,35.604522,139.76082,都立公園
京浜運河緑道公園,Keihin-unga Ryokudo Park (Kehin Canal Promenade Park),文化・スポーツ施設・公園,,140-0003,東京都品川区八潮1、5,35.617434,139.7553,都立公園
東八潮緑道公園,,文化・スポーツ施設・公園,,135-0092,東京都品川区東八潮,35.620345,139.77237,都立公園
みなとが丘ふ頭公園,Minatogaoka-futo Park （Minatogaoka Pier Park),文化・スポーツ施設・公園,,140-0003,東京都品川区八潮3-1-11,35.599137,139.76206,都立公園
大井ふ頭緑道公園,Oi-futo Ryokudo Park （Oi Pier Promenade Park),文化・スポーツ施設・公園,,140-0003,東京都品川区八潮5,35.599009,139.75012,都立公園
大井ふ頭中央海浜公園,Oi-futo Chuo-kaihin Park （Oi Pier Central Seashore Park),文化・スポーツ施設・公園,,140-0003,東京都品川区八潮4-1-19,35.592626,139.75227,都立公園
(公財)品川区国際友好協会,Shinagawa-ku International Friendship Association,官公署・公共機関,03-5742-6517,140-0005,東京都品川区広町2-1-36品川区総合庁舎第3庁舎,35.608837,139.73024,区内官公署等
(財)品川区スポーツ協会,Shinagawa‐ku Sports Association,官公署・公共機関,03-3449-4400,141-0022,東京都品川区東五反田2-11-2総合体育館内,35.62418,139.72826,区内官公署等
八潮北保管所,,官公署・公共機関,03-3790-8820,140-0003,東京都品川区八潮1-3-1,35.612485,139.75376,区内官公署等
品川警察署,Shinagawa Police Sta.,官公署・公共機関,03-3450-0110,140-0002,東京都品川区東品川3-14-32,35.61387,139.7452,区内官公署等
大崎警察署,Osaki Police Sta.,官公署・公共機関,03-3494-0110,141-0032,東京都品川区大崎4-2-10,35.62177,139.72413,区内官公署等
大井警察署,Oi Police Sta.,官公署・公共機関,03-3778-0110,140-0014,東京都品川区大井5-10-2,35.598827,139.72979,区内官公署等
荏原警察署,Ebara Police Sta.,官公署・公共機関,03-3781-0110,142-0063,東京都品川区荏原6-19-10,35.612053,139.70619,区内官公署等
東京水上警察署,,官公署・公共機関,03-3458-0110,108-0075,東京都港区港南5-8-36,35.632557,139.7551,区内官公署等
品川消防署,Shinagawa Fire Sta.,官公署・公共機関,03-3474-0119,140-0001,東京都品川区北品川3-7-31,35.617156,139.73973,区内官公署等
品川消防署東品川出張所,,官公署・公共機関,03-3450-0119,140-0002,東京都品川区東品川3-32-12,35.613321,139.75038,区内官公署等
品川消防署大崎出張所,,官公署・公共機関,03-3494-0119,141-0033,東京都品川区西品川1-7-9,35.61359,139.73162,区内官公署等
品川消防署五反田出張所,,官公署・公共機関,03-3492-0119,141-0031,東京都品川区西五反田7-25-14,35.620005,139.71848,区内官公署等
大井消防署,Oi Fire Sta.,官公署・公共機関,03-3765-0119,140-0011,東京都品川区東大井3-6-12,35.60351,139.74006,区内官公署等
大井消防署滝王子出張所,,官公署・公共機関,03-3778-0119,140-0014,東京都品川区大井5-17-9,35.598294,139.72816,区内官公署等
大井消防署八潮出張所,,官公署・公共機関,03-3799-0119,140-0003,東京都品川区八潮5-8-3,35.597075,139.75154,区内官公署等
荏原消防署,Ebara Fire Sta.,官公署・公共機関,03-3786-0119,142-0051,東京都品川区平塚3-16-20,35.614586,139.71053,区内官公署等
荏原消防署戸越出張所,,官公署・公共機関,03-3785-0119,142-0041,東京都品川区戸越5-20-15,35.608368,139.71876,区内官公署等
荏原消防署小山出張所,,官公署・公共機関,03-3781-0119,142-0062,東京都品川区小山5-12-11,35.616052,139.70226,区内官公署等
荏原消防署旗の台出張所,,官公署・公共機関,03-3783-0119,142-0064,東京都品川区旗の台6-24-11,35.605834,139.7,区内官公署等
品川税務署,,官公署・公共機関,03-3443-4171,108-0074,東京都品川区港区高輪3-13-22,35.629544,139.73475,区内官公署等
荏原税務署,Ebara Taxation Office,官公署・公共機関,03-3783-5371,142-0053,東京都品川区中延1-1-5,35.613831,139.70975,区内官公署等
品川都税事務所,Shinagawa Metropolitan Taxation Office,官公署・公共機関,03-3774-6666,140-0005,東京都品川区広町2-1-36品川区総合庁舎,35.608837,139.73024,区内官公署等
品川自動車税事務所,Shinagawa Automobile Taxation Office,官公署・公共機関,03-3471-6670,140-0011,東京都品川区東大井1-12-18,35.605038,139.74661,区内官公署等
関東運輸局東京陸運支局,,官公署・公共機関,03-3458-9232,140-0011,東京都品川区東大井1-12-17,35.604733,139.74705,区内官公署等
品川郵便局,Shinagawa Post Office,官公署・公共機関,03-3471-1064,140-0011,東京都品川区東大井5-23-34,35.605077,139.73627,区内官公署等
大崎郵便局,Osaki Post Office,官公署・公共機関,03-3493-2208,141-0031,東京都品川区西五反田2-32-7,35.625038,139.71901,区内官公署等
荏原郵便局,Ebara Post Office,官公署・公共機関,03-3786-8112,142-0054,東京都品川区西中延1-7-23,35.612669,139.70732,区内官公署等
水道局品川営業所,Bureau of Waterworks Shinagawa Service Sta.,官公署・公共機関,03-5749-5573,142-0054,東京都品川区西中延1-9-10,35.611581,139.70783,区内官公署等
下水道局南部管理事務所品川出張所,,官公署・公共機関,03-3495-0351,141-0033,東京都品川区西品川1-8-1,35.612998,139.73011,区内官公署等
品川年金事務所,,官公署・公共機関,03-3494-7831,141-0032,東京都品川区大崎5-1-5高徳ビル2階,35.623666,139.72489,区内官公署等
都立城南職業能力開発センター,,官公署・公共機関,03-3472-3411,140-0002,東京都品川区東品川3-31-16,35.612501,139.74965,区内官公署等
品川労働基準監督署,Shinagawa Labor Standard Inspection Office,官公署・公共機関,03-3443-5742,141-0021,東京都品川区上大崎3-13-26,35.62959,139.71909,区内官公署等
東京法務局品川出張所,"Tokyo Legal Bureau, Shinagawa Branch Office",官公署・公共機関,03-3774-3446,140-0005,東京都品川区広町2-1-36品川区総合庁舎,35.608837,139.73024,区内官公署等
五反田公証役場,Gotanda Notary Office,官公署・公共機関,03-3445-0021,141-0022,東京都品川区東五反田5-27-6,35.62706,139.72337,区内官公署等
目黒公証役場,Meguro Notary Office,官公署・公共機関,03-3494-8040,141-0021,東京都品川区上大崎2-17-5,35.635534,139.71503,区内官公署等
大森公証役場,Omori Notary Office,官公署・公共機関,03-3763-2763,143-0016,東京都品川区大田区大森北1-17-2大森センタービル2階,35.587087,139.73045,区内官公署等
東京電力品川支社,Tokyo Electric Power Co. Shinagawa Branch,官公署・公共機関,0120-995-002,141-0031,東京都品川区西五反田5-3-1,35.625643,139.71672,区内官公署等
品川火力発電所,Shinagawa Thermal Power Sta.,官公署・公共機関,03-3471-1591,140-0002,東京都品川区東品川5-6-22,35.62139,139.75487,区内官公署等
大井火力発電所,Oi Thermal Power Sta.,官公署・公共機関,03-3471-1591,140-0003,東京都品川区八潮1-2-2,35.615023,139.75608,区内官公署等
大井町サービスコーナー,Oi-machi Service Corner,区民生活関連施設,03-3777-0050,140-0000,東京都品川区JR京浜東北線大井町駅ビル「アトレ」中央西口階段下,35.606182,139.73489,戸籍住民課分室
武蔵小山サービスコーナー,Musashi-koyama Service Corner,区民生活関連施設,03-5749-0050,142-0062,東京都品川区小山3-27-5 武蔵小山創業支援センター4階,35.619766,139.70334,戸籍住民課分室
品川区立中小企業センター,Small to Medium Sized Enterprises' Ctr.,区民生活関連施設,03-3787-3041,141-0033,東京都品川区西品川1-28-3,35.609295,139.72769,中小企業センター
品川産業支援交流施設SHIP,,区民生活関連施設,03-5449-6871,141-0001,東京都品川区北品川5-5-15 大崎ブライトコア 3・4階,35.622547,139.7307,創業支援施設
武蔵小山創業支援センター,,区民生活関連施設,03-5749-4540,142-0062,東京都品川区小山3-27-5,35.619766,139.70334,創業支援センター
西大井創業支援センター,,区民生活関連施設,,140-0015,東京都品川区西大井1-1-2,35.601166,139.72211,創業支援センター
天王洲創業支援センター,,区民生活関連施設,,140-0002,東京都品川区東品川2-2-5,35.622392,139.74933,創業支援センター
広町一丁目工場アパート・創業支援センター,,区民生活関連施設,,140-0005,東京都品川区広町１－５－２８,35.614345,139.73567,創業支援センター
品川区清掃事務所,Shinagawa City Waste Collection Office,区民生活関連施設,03-3490-7051,141-0032,東京都品川区大崎1-14-1,35.618255,139.73335,清掃事務所
品川区清掃事務所　荏原庁舎,,区民生活関連施設,03-3786-6552,142-0051,東京都品川区平塚1-10-11,35.614002,139.71429,清掃事務所
品川清掃工場,Shinagawa Incineration Plant,区民生活関連施設,03-3799-5353,140-0003,東京都品川区八潮1-4-1,35.607941,139.75322,清掃事務所
なぎさ会館,Nagisa Funeral Hall,区民生活関連施設,03-5471-2700,140-0012,東京都品川区勝島3-1-3,35.596317,139.74173,葬祭施設
臨海斎場,,区民生活関連施設,03-5755-2833,143-0001,東京都大田区東海1-3-1,35.585557,139.75282,葬祭施設
品川区消費者センター,Consumers' Ctr.,区民生活関連施設,03-5718-7181,140-0014,東京都品川区大井1-14-1　大井1丁目共同ビル4階,35.607696,139.73146,消費生活相談
男女共同参画センター,Equality of Gender Ctr.,区民生活関連施設,03-5479－4104,140-0011,東京都品川区東大井5－18－1品川区立総合区民会館3階,35.606177,139.73584,男女共同参画
品川区就業センター,,区民生活関連施設,03-5498-6353,141-0033,東京都品川区西品川1-28-3,35.609295,139.72769,就業支援
